<?xml version="1.0" encoding="UTF-8"?>
<gpx creator="StravaGPX" version="1.1" xmlns="http://www.topografix.com/GPX/1/1" xmlns:xsi="http://www.w3.org/2001/XMLSchema-instance" xsi:schemaLocation="http://www.topografix.com/GPX/1/1 http://www.topografix.com/GPX/1/1/gpx.xsd">
 <metadata>
  <name>Madmac 42km</name>
  <author>
   <name>Racepass Strava</name>
   <link href="https://www.strava.com/athletes/103770724"/>
  </author>
  <copyright author="OpenStreetMap contributors">
   <year>2020</year>
   <license>https://www.openstreetmap.org/copyright</license>
  </copyright>
  <link href="https://www.strava.com/routes/3487795862419970618"/>
 </metadata>
 <trk>
  <name>Madmac 42km</name>
  <link href="https://www.strava.com/routes/3487795862419970618"/>
  <type>running</type>
  <trkseg>
   <trkpt lat="-26.487700000000004" lon="28.06276">
    <ele>1493.3100000000002</ele>
   </trkpt>
   <trkpt lat="-26.48853" lon="28.062420000000003">
    <ele>1493.6</ele>
   </trkpt>
   <trkpt lat="-26.48863" lon="28.062340000000003">
    <ele>1493.6</ele>
   </trkpt>
   <trkpt lat="-26.489265000207745" lon="28.062065001542987">
    <ele>1493.7600000000002</ele>
   </trkpt>
   <trkpt lat="-26.489900000000002" lon="28.061790000000002">
    <ele>1494.4400000000003</ele>
   </trkpt>
   <trkpt lat="-26.489863338934644" lon="28.060893332744783">
    <ele>1494.0600000000002</ele>
   </trkpt>
   <trkpt lat="-26.48982667226729" lon="28.059996666061473">
    <ele>1494.38</ele>
   </trkpt>
   <trkpt lat="-26.489790000000003" lon="28.0591">
    <ele>1494.8400000000001</ele>
   </trkpt>
   <trkpt lat="-26.489810000000002" lon="28.05889">
    <ele>1494.8400000000001</ele>
   </trkpt>
   <trkpt lat="-26.48985" lon="28.058740000000004">
    <ele>1495.3500000000001</ele>
   </trkpt>
   <trkpt lat="-26.489950000000004" lon="28.058650000000004">
    <ele>1495.3500000000001</ele>
   </trkpt>
   <trkpt lat="-26.490425000345624" lon="28.058435000804767">
    <ele>1495.6100000000001</ele>
   </trkpt>
   <trkpt lat="-26.490900000000003" lon="28.058220000000002">
    <ele>1496.38</ele>
   </trkpt>
   <trkpt lat="-26.491076671659492" lon="28.05906666405492">
    <ele>1495.2900000000002</ele>
   </trkpt>
   <trkpt lat="-26.491253338324192" lon="28.05991333071208">
    <ele>1495.5200000000002</ele>
   </trkpt>
   <trkpt lat="-26.49143" lon="28.060760000000002">
    <ele>1497.19</ele>
   </trkpt>
   <trkpt lat="-26.491580000000003" lon="28.061230000000002">
    <ele>1497.9</ele>
   </trkpt>
   <trkpt lat="-26.491830000000004" lon="28.06191">
    <ele>1497.3200000000002</ele>
   </trkpt>
   <trkpt lat="-26.492140002749927" lon="28.062799997571997">
    <ele>1490.96</ele>
   </trkpt>
   <trkpt lat="-26.49245" lon="28.06369">
    <ele>1486.6800000000003</ele>
   </trkpt>
   <trkpt lat="-26.49295" lon="28.063480000000002">
    <ele>1486.55</ele>
   </trkpt>
   <trkpt lat="-26.492715001670636" lon="28.06278999862434">
    <ele>1487.65</ele>
   </trkpt>
   <trkpt lat="-26.49248" lon="28.0621">
    <ele>1489.74</ele>
   </trkpt>
   <trkpt lat="-26.49248" lon="28.062020000000004">
    <ele>1489.8</ele>
   </trkpt>
   <trkpt lat="-26.493070000375063" lon="28.06176666929816">
    <ele>1489.7300000000002</ele>
   </trkpt>
   <trkpt lat="-26.493660000302924" lon="28.06151333599583">
    <ele>1489.68</ele>
   </trkpt>
   <trkpt lat="-26.49425" lon="28.06126">
    <ele>1489.6100000000001</ele>
   </trkpt>
   <trkpt lat="-26.494993334144322" lon="28.060926670961567">
    <ele>1489.66</ele>
   </trkpt>
   <trkpt lat="-26.495736667514393" lon="28.060593337611834">
    <ele>1489.8</ele>
   </trkpt>
   <trkpt lat="-26.496480000000002" lon="28.060260000000003">
    <ele>1490.1200000000001</ele>
   </trkpt>
   <trkpt lat="-26.496660000000002" lon="28.060160000000003">
    <ele>1490.1200000000001</ele>
   </trkpt>
   <trkpt lat="-26.49747000170008" lon="28.059812009805547">
    <ele>1490.21</ele>
   </trkpt>
   <trkpt lat="-26.498280002556232" lon="28.059464014705945">
    <ele>1490.66</ele>
   </trkpt>
   <trkpt lat="-26.499090002568405" lon="28.059116014700976">
    <ele>1491.51</ele>
   </trkpt>
   <trkpt lat="-26.499900001736563" lon="28.05876800979038">
    <ele>1492.3700000000001</ele>
   </trkpt>
   <trkpt lat="-26.50071" lon="28.05842">
    <ele>1493.78</ele>
   </trkpt>
   <trkpt lat="-26.50132000028107" lon="28.058165001330888">
    <ele>1494.4</ele>
   </trkpt>
   <trkpt lat="-26.50193" lon="28.057910000000003">
    <ele>1495.2500000000002</ele>
   </trkpt>
   <trkpt lat="-26.502646667197634" lon="28.057640003359438">
    <ele>1495.6200000000001</ele>
   </trkpt>
   <trkpt lat="-26.503363333887172" lon="28.057370003350876">
    <ele>1495.95</ele>
   </trkpt>
   <trkpt lat="-26.504080000000002" lon="28.057100000000002">
    <ele>1496.3500000000001</ele>
   </trkpt>
   <trkpt lat="-26.50423500186116" lon="28.057824999159035">
    <ele>1494.5600000000002</ele>
   </trkpt>
   <trkpt lat="-26.50439" lon="28.058550000000004">
    <ele>1492.89</ele>
   </trkpt>
   <trkpt lat="-26.50453500214009" lon="28.059329999121847">
    <ele>1489.95</ele>
   </trkpt>
   <trkpt lat="-26.50468" lon="28.06011">
    <ele>1487.5600000000002</ele>
   </trkpt>
   <trkpt lat="-26.504830015723844" lon="28.060977136065105">
    <ele>1484.08</ele>
   </trkpt>
   <trkpt lat="-26.50498002620654" lon="28.061844274394595">
    <ele>1481.5500000000002</ele>
   </trkpt>
   <trkpt lat="-26.505130031448033" lon="28.06271141498843">
    <ele>1479.2</ele>
   </trkpt>
   <trkpt lat="-26.505280031448272" lon="28.063578557846544">
    <ele>1477.3700000000001</ele>
   </trkpt>
   <trkpt lat="-26.50543002620722" lon="28.064445702968875">
    <ele>1476.3300000000002</ele>
   </trkpt>
   <trkpt lat="-26.505580015724824" lon="28.065312850355365">
    <ele>1475.2200000000003</ele>
   </trkpt>
   <trkpt lat="-26.505730000000003" lon="28.066180000000003">
    <ele>1474.9</ele>
   </trkpt>
   <trkpt lat="-26.504948752721212" lon="28.066513765883585">
    <ele>1475.0100000000002</ele>
   </trkpt>
   <trkpt lat="-26.50416750466595" lon="28.066847527228116">
    <ele>1475.43</ele>
   </trkpt>
   <trkpt lat="-26.503386255834236" lon="28.0671812840338">
    <ele>1475.3600000000001</ele>
   </trkpt>
   <trkpt lat="-26.502605006226116" lon="28.06751503630086">
    <ele>1474.9800000000002</ele>
   </trkpt>
   <trkpt lat="-26.50182375584163" lon="28.0678487840295">
    <ele>1474.23</ele>
   </trkpt>
   <trkpt lat="-26.50104250468081" lon="28.06818252721994">
    <ele>1473.63</ele>
   </trkpt>
   <trkpt lat="-26.5002612527437" lon="28.068516265872383">
    <ele>1472.76</ele>
   </trkpt>
   <trkpt lat="-26.499480000000002" lon="28.06885">
    <ele>1471.94</ele>
   </trkpt>
   <trkpt lat="-26.49974333748971" lon="28.06962332975508">
    <ele>1469.4600000000003</ele>
   </trkpt>
   <trkpt lat="-26.500006670811462" lon="28.070396663054318">
    <ele>1468.97</ele>
   </trkpt>
   <trkpt lat="-26.50027" lon="28.071170000000002">
    <ele>1469.1900000000003</ele>
   </trkpt>
   <trkpt lat="-26.500420000000002" lon="28.071890000000003">
    <ele>1469.65</ele>
   </trkpt>
   <trkpt lat="-26.500510000000002" lon="28.07261">
    <ele>1470.16</ele>
   </trkpt>
   <trkpt lat="-26.500510000000002" lon="28.073200000000003">
    <ele>1470.64</ele>
   </trkpt>
   <trkpt lat="-26.500420000000002" lon="28.07401">
    <ele>1471.03</ele>
   </trkpt>
   <trkpt lat="-26.50027" lon="28.074720000000003">
    <ele>1471.5</ele>
   </trkpt>
   <trkpt lat="-26.50017" lon="28.075090000000003">
    <ele>1471.7000000000003</ele>
   </trkpt>
   <trkpt lat="-26.499878010743277" lon="28.075968008929255">
    <ele>1472.2</ele>
   </trkpt>
   <trkpt lat="-26.499586016113877" lon="28.076846013396697">
    <ele>1472.5600000000002</ele>
   </trkpt>
   <trkpt lat="-26.499294016111904" lon="28.077724013402342">
    <ele>1474.2</ele>
   </trkpt>
   <trkpt lat="-26.499002010737453" lon="28.078602008946184">
    <ele>1475.1100000000001</ele>
   </trkpt>
   <trkpt lat="-26.498710000000003" lon="28.079480000000004">
    <ele>1476.16</ele>
   </trkpt>
   <trkpt lat="-26.498520001205456" lon="28.080075001071897">
    <ele>1477.09</ele>
   </trkpt>
   <trkpt lat="-26.498330000000003" lon="28.08067">
    <ele>1477.5800000000002</ele>
   </trkpt>
   <trkpt lat="-26.498160000000002" lon="28.081550000000004">
    <ele>1477.92</ele>
   </trkpt>
   <trkpt lat="-26.4981" lon="28.08255">
    <ele>1479.2800000000002</ele>
   </trkpt>
   <trkpt lat="-26.49813333684634" lon="28.083259999586037">
    <ele>1479.54</ele>
   </trkpt>
   <trkpt lat="-26.49816667017958" lon="28.083969999583946">
    <ele>1480.26</ele>
   </trkpt>
   <trkpt lat="-26.4982" lon="28.084680000000002">
    <ele>1481.63</ele>
   </trkpt>
   <trkpt lat="-26.49823432985607" lon="28.085667139027628">
    <ele>1483.16</ele>
   </trkpt>
   <trkpt lat="-26.49826865292115" lon="28.086654278644932">
    <ele>1484.5100000000002</ele>
   </trkpt>
   <trkpt lat="-26.498302969195237" lon="28.087641418851803">
    <ele>1485.88</ele>
   </trkpt>
   <trkpt lat="-26.498337278678306" lon="28.08862855964812">
    <ele>1486.88</ele>
   </trkpt>
   <trkpt lat="-26.498371581370353" lon="28.089615701033782">
    <ele>1487.6</ele>
   </trkpt>
   <trkpt lat="-26.49840587727136" lon="28.090602843008664">
    <ele>1488.97</ele>
   </trkpt>
   <trkpt lat="-26.49844016638131" lon="28.091589985572643">
    <ele>1490.0600000000002</ele>
   </trkpt>
   <trkpt lat="-26.498474448700186" lon="28.092577128725615">
    <ele>1491.48</ele>
   </trkpt>
   <trkpt lat="-26.498508724227985" lon="28.093564272467457">
    <ele>1492.18</ele>
   </trkpt>
   <trkpt lat="-26.49854299296468" lon="28.09455141679806">
    <ele>1492.97</ele>
   </trkpt>
   <trkpt lat="-26.498577254910263" lon="28.09553856171731">
    <ele>1494.2300000000002</ele>
   </trkpt>
   <trkpt lat="-26.49861151006472" lon="28.09652570722508">
    <ele>1494.9</ele>
   </trkpt>
   <trkpt lat="-26.49864575842804" lon="28.097512853321266">
    <ele>1495.09</ele>
   </trkpt>
   <trkpt lat="-26.498680000000004" lon="28.0985">
    <ele>1495.38</ele>
   </trkpt>
   <trkpt lat="-26.4987128742395" lon="28.09940428415906">
    <ele>1495.38</ele>
   </trkpt>
   <trkpt lat="-26.49874574278008" lon="28.100308568835416">
    <ele>1495.46</ele>
   </trkpt>
   <trkpt lat="-26.498778605621755" lon="28.101212854028986">
    <ele>1495.02</ele>
   </trkpt>
   <trkpt lat="-26.498811462764493" lon="28.102117139739676">
    <ele>1494.7100000000003</ele>
   </trkpt>
   <trkpt lat="-26.498844314208302" lon="28.103021425967402">
    <ele>1494.2700000000002</ele>
   </trkpt>
   <trkpt lat="-26.498877159953153" lon="28.103925712712073">
    <ele>1494.3200000000002</ele>
   </trkpt>
   <trkpt lat="-26.498910000000002" lon="28.104830000000003">
    <ele>1494.4700000000003</ele>
   </trkpt>
   <trkpt lat="-26.498925002822947" lon="28.105729999907723">
    <ele>1494.73</ele>
   </trkpt>
   <trkpt lat="-26.49894" lon="28.106630000000003">
    <ele>1494.8400000000001</ele>
   </trkpt>
   <trkpt lat="-26.49897669362215" lon="28.107613330824464">
    <ele>1494.8600000000001</ele>
   </trkpt>
   <trkpt lat="-26.49901338050547" lon="28.1085966622768">
    <ele>1496.16</ele>
   </trkpt>
   <trkpt lat="-26.49905006064997" lon="28.109579994356896">
    <ele>1498.7</ele>
   </trkpt>
   <trkpt lat="-26.499086734055606" lon="28.110563327064646">
    <ele>1501.03</ele>
   </trkpt>
   <trkpt lat="-26.499123400722382" lon="28.11154666039993">
    <ele>1502.5400000000002</ele>
   </trkpt>
   <trkpt lat="-26.49916006065028" lon="28.112529994362642">
    <ele>1504.3700000000001</ele>
   </trkpt>
   <trkpt lat="-26.49919671383928" lon="28.113513328952656">
    <ele>1505.68</ele>
   </trkpt>
   <trkpt lat="-26.499233360289363" lon="28.11449666416986">
    <ele>1506.49</ele>
   </trkpt>
   <trkpt lat="-26.499270000000003" lon="28.11548">
    <ele>1507.9</ele>
   </trkpt>
   <trkpt lat="-26.499315003451024" lon="28.116474999635464">
    <ele>1509.1000000000001</ele>
   </trkpt>
   <trkpt lat="-26.499360000000003" lon="28.11747">
    <ele>1510.6100000000001</ele>
   </trkpt>
   <trkpt lat="-26.4994" lon="28.118090000000002">
    <ele>1511.3</ele>
   </trkpt>
   <trkpt lat="-26.49951" lon="28.118700000000004">
    <ele>1511.9900000000002</ele>
   </trkpt>
   <trkpt lat="-26.499760000000002" lon="28.119510000000002">
    <ele>1513.3200000000002</ele>
   </trkpt>
   <trkpt lat="-26.49989" lon="28.11991">
    <ele>1513.6200000000001</ele>
   </trkpt>
   <trkpt lat="-26.50008" lon="28.120340000000002">
    <ele>1514.21</ele>
   </trkpt>
   <trkpt lat="-26.500480001642618" lon="28.121019997686208">
    <ele>1514.92</ele>
   </trkpt>
   <trkpt lat="-26.500880000000002" lon="28.1217">
    <ele>1515.5400000000002</ele>
   </trkpt>
   <trkpt lat="-26.501240000000003" lon="28.122200000000003">
    <ele>1516.17</ele>
   </trkpt>
   <trkpt lat="-26.501600000000003" lon="28.122760000000003">
    <ele>1516.75</ele>
   </trkpt>
   <trkpt lat="-26.501600000000003" lon="28.122770000000003">
    <ele>1516.75</ele>
   </trkpt>
   <trkpt lat="-26.501240000000003" lon="28.122200000000003">
    <ele>1516.17</ele>
   </trkpt>
   <trkpt lat="-26.500880000000002" lon="28.1217">
    <ele>1515.5400000000002</ele>
   </trkpt>
   <trkpt lat="-26.50048000158007" lon="28.121019997579864">
    <ele>1514.92</ele>
   </trkpt>
   <trkpt lat="-26.50008" lon="28.120340000000002">
    <ele>1514.21</ele>
   </trkpt>
   <trkpt lat="-26.49989" lon="28.11991">
    <ele>1513.6200000000001</ele>
   </trkpt>
   <trkpt lat="-26.499760000000002" lon="28.119510000000002">
    <ele>1512.97</ele>
   </trkpt>
   <trkpt lat="-26.49951" lon="28.118700000000004">
    <ele>1511.9900000000002</ele>
   </trkpt>
   <trkpt lat="-26.4994" lon="28.118090000000002">
    <ele>1511.3</ele>
   </trkpt>
   <trkpt lat="-26.499360000000003" lon="28.11747">
    <ele>1510.21</ele>
   </trkpt>
   <trkpt lat="-26.499315003448753" lon="28.116474999585307">
    <ele>1509.1000000000001</ele>
   </trkpt>
   <trkpt lat="-26.499270000000003" lon="28.11548">
    <ele>1507.9</ele>
   </trkpt>
   <trkpt lat="-26.499233360288837" lon="28.114496664155716">
    <ele>1506.49</ele>
   </trkpt>
   <trkpt lat="-26.499196713838753" lon="28.113513328938506">
    <ele>1505.68</ele>
   </trkpt>
   <trkpt lat="-26.499160060649753" lon="28.112529994348492">
    <ele>1504.3700000000001</ele>
   </trkpt>
   <trkpt lat="-26.499123400721857" lon="28.11154666038579">
    <ele>1502.5400000000002</ele>
   </trkpt>
   <trkpt lat="-26.499086734055084" lon="28.110563327050503">
    <ele>1500.04</ele>
   </trkpt>
   <trkpt lat="-26.499050060649445" lon="28.109579994342752">
    <ele>1498.7</ele>
   </trkpt>
   <trkpt lat="-26.499013380504948" lon="28.108596662262656">
    <ele>1496.16</ele>
   </trkpt>
   <trkpt lat="-26.498976693621625" lon="28.107613330810317">
    <ele>1494.82</ele>
   </trkpt>
   <trkpt lat="-26.49894" lon="28.106630000000003">
    <ele>1494.8400000000001</ele>
   </trkpt>
   <trkpt lat="-26.49892500282212" lon="28.105729999857342">
    <ele>1494.73</ele>
   </trkpt>
   <trkpt lat="-26.498910000000002" lon="28.104830000000003">
    <ele>1494.4700000000003</ele>
   </trkpt>
   <trkpt lat="-26.498877159954112" lon="28.103925712738477">
    <ele>1494.3200000000002</ele>
   </trkpt>
   <trkpt lat="-26.49884431420926" lon="28.103021425993806">
    <ele>1494.2700000000002</ele>
   </trkpt>
   <trkpt lat="-26.498811462765453" lon="28.102117139766083">
    <ele>1494.7100000000003</ele>
   </trkpt>
   <trkpt lat="-26.498778605622714" lon="28.10121285405539">
    <ele>1495.09</ele>
   </trkpt>
   <trkpt lat="-26.49874574278104" lon="28.10030856886182">
    <ele>1495.46</ele>
   </trkpt>
   <trkpt lat="-26.498712874240457" lon="28.099404284185464">
    <ele>1495.38</ele>
   </trkpt>
   <trkpt lat="-26.498680000000004" lon="28.0985">
    <ele>1495.38</ele>
   </trkpt>
   <trkpt lat="-26.498645758427845" lon="28.09751285331552">
    <ele>1495.0</ele>
   </trkpt>
   <trkpt lat="-26.498611510064528" lon="28.09652570721934">
    <ele>1494.9</ele>
   </trkpt>
   <trkpt lat="-26.49857725491007" lon="28.095538561711567">
    <ele>1494.02</ele>
   </trkpt>
   <trkpt lat="-26.498542992964484" lon="28.094551416792314">
    <ele>1492.97</ele>
   </trkpt>
   <trkpt lat="-26.49850872422779" lon="28.093564272461713">
    <ele>1492.18</ele>
   </trkpt>
   <trkpt lat="-26.498474448699987" lon="28.09257712871987">
    <ele>1490.42</ele>
   </trkpt>
   <trkpt lat="-26.498440166381112" lon="28.0915899855669">
    <ele>1490.0600000000002</ele>
   </trkpt>
   <trkpt lat="-26.49840587727116" lon="28.09060284300292">
    <ele>1488.97</ele>
   </trkpt>
   <trkpt lat="-26.498371581370158" lon="28.089615701028038">
    <ele>1487.6</ele>
   </trkpt>
   <trkpt lat="-26.498337278678108" lon="28.088628559642384">
    <ele>1486.88</ele>
   </trkpt>
   <trkpt lat="-26.498302969195038" lon="28.08764141884606">
    <ele>1485.88</ele>
   </trkpt>
   <trkpt lat="-26.49826865292095" lon="28.086654278639188">
    <ele>1484.5100000000002</ele>
   </trkpt>
   <trkpt lat="-26.498234329855872" lon="28.085667139021883">
    <ele>1483.16</ele>
   </trkpt>
   <trkpt lat="-26.4982" lon="28.084680000000002">
    <ele>1481.63</ele>
   </trkpt>
   <trkpt lat="-26.49816667017988" lon="28.08396999959026">
    <ele>1480.26</ele>
   </trkpt>
   <trkpt lat="-26.49813333684664" lon="28.083259999592347">
    <ele>1479.54</ele>
   </trkpt>
   <trkpt lat="-26.4981" lon="28.08255">
    <ele>1478.7700000000002</ele>
   </trkpt>
   <trkpt lat="-26.498160000000002" lon="28.081550000000004">
    <ele>1477.92</ele>
   </trkpt>
   <trkpt lat="-26.498330000000003" lon="28.08067">
    <ele>1477.5800000000002</ele>
   </trkpt>
   <trkpt lat="-26.4985200012618" lon="28.080075000895476">
    <ele>1477.09</ele>
   </trkpt>
   <trkpt lat="-26.498710000000003" lon="28.079480000000004">
    <ele>1476.16</ele>
   </trkpt>
   <trkpt lat="-26.499002010746832" lon="28.07860200891797">
    <ele>1475.1100000000001</ele>
   </trkpt>
   <trkpt lat="-26.499294016121283" lon="28.07772401337413">
    <ele>1474.2</ele>
   </trkpt>
   <trkpt lat="-26.49958601612326" lon="28.07684601336848">
    <ele>1472.5600000000002</ele>
   </trkpt>
   <trkpt lat="-26.499878010752656" lon="28.075968008901036">
    <ele>1472.2</ele>
   </trkpt>
   <trkpt lat="-26.50017" lon="28.075090000000003">
    <ele>1471.7000000000003</ele>
   </trkpt>
   <trkpt lat="-26.50027" lon="28.074720000000003">
    <ele>1471.5</ele>
   </trkpt>
   <trkpt lat="-26.500420000000002" lon="28.07401">
    <ele>1471.03</ele>
   </trkpt>
   <trkpt lat="-26.500510000000002" lon="28.073200000000003">
    <ele>1470.64</ele>
   </trkpt>
   <trkpt lat="-26.500510000000002" lon="28.07261">
    <ele>1470.16</ele>
   </trkpt>
   <trkpt lat="-26.500420000000002" lon="28.071890000000003">
    <ele>1469.65</ele>
   </trkpt>
   <trkpt lat="-26.50027" lon="28.071170000000002">
    <ele>1469.1900000000003</ele>
   </trkpt>
   <trkpt lat="-26.500006670846282" lon="28.070396663156597">
    <ele>1469.0200000000002</ele>
   </trkpt>
   <trkpt lat="-26.49974333752454" lon="28.069623329857357">
    <ele>1469.64</ele>
   </trkpt>
   <trkpt lat="-26.499480000000002" lon="28.06885">
    <ele>1471.94</ele>
   </trkpt>
   <trkpt lat="-26.49872625261929" lon="28.069177515033626">
    <ele>1471.3</ele>
   </trkpt>
   <trkpt lat="-26.497972504491027" lon="28.06950502577115">
    <ele>1471.23</ele>
   </trkpt>
   <trkpt lat="-26.497218755615258" lon="28.06983253221278">
    <ele>1470.23</ele>
   </trkpt>
   <trkpt lat="-26.496465005992007" lon="28.0701600343587">
    <ele>1469.18</ele>
   </trkpt>
   <trkpt lat="-26.495711255621316" lon="28.070487532209103">
    <ele>1468.91</ele>
   </trkpt>
   <trkpt lat="-26.494957504503212" lon="28.07081502576419">
    <ele>1469.4600000000003</ele>
   </trkpt>
   <trkpt lat="-26.494203752637738" lon="28.07114251502415">
    <ele>1469.5900000000001</ele>
   </trkpt>
   <trkpt lat="-26.493450000000003" lon="28.07147">
    <ele>1468.66</ele>
   </trkpt>
   <trkpt lat="-26.493370000000002" lon="28.07149">
    <ele>1468.6000000000001</ele>
   </trkpt>
   <trkpt lat="-26.49323" lon="28.07148">
    <ele>1468.5800000000002</ele>
   </trkpt>
   <trkpt lat="-26.49313" lon="28.071420000000003">
    <ele>1468.6100000000001</ele>
   </trkpt>
   <trkpt lat="-26.49303" lon="28.071310000000004">
    <ele>1468.7800000000002</ele>
   </trkpt>
   <trkpt lat="-26.49273667153241" lon="28.07047332902925">
    <ele>1470.39</ele>
   </trkpt>
   <trkpt lat="-26.492443338187055" lon="28.069636662328392">
    <ele>1471.5500000000002</ele>
   </trkpt>
   <trkpt lat="-26.492150000000002" lon="28.068800000000003">
    <ele>1473.57</ele>
   </trkpt>
   <trkpt lat="-26.491856010454235" lon="28.067933991150028">
    <ele>1475.5500000000002</ele>
   </trkpt>
   <trkpt lat="-26.491562015682764" lon="28.06706798672946">
    <ele>1477.92</ele>
   </trkpt>
   <trkpt lat="-26.491268015685673" lon="28.066201986738307">
    <ele>1481.66</ele>
   </trkpt>
   <trkpt lat="-26.490974010463056" lon="28.06533599117656">
    <ele>1485.03</ele>
   </trkpt>
   <trkpt lat="-26.49068" lon="28.064470000000004">
    <ele>1487.45</ele>
   </trkpt>
   <trkpt lat="-26.490000000000002" lon="28.064760000000003">
    <ele>1487.68</ele>
   </trkpt>
   <trkpt lat="-26.490240001405418" lon="28.065399998606495">
    <ele>1486.13</ele>
   </trkpt>
   <trkpt lat="-26.49048" lon="28.06604">
    <ele>1483.5500000000002</ele>
   </trkpt>
   <trkpt lat="-26.4905" lon="28.06614">
    <ele>1483.27</ele>
   </trkpt>
   <trkpt lat="-26.490470000000002" lon="28.06622">
    <ele>1483.16</ele>
   </trkpt>
   <trkpt lat="-26.490440000000003" lon="28.066260000000003">
    <ele>1483.16</ele>
   </trkpt>
   <trkpt lat="-26.489635001138954" lon="28.06659250699103">
    <ele>1483.42</ele>
   </trkpt>
   <trkpt lat="-26.48883000150757" lon="28.066925009325768">
    <ele>1484.21</ele>
   </trkpt>
   <trkpt lat="-26.488025001105903" lon="28.067257507004438">
    <ele>1484.76</ele>
   </trkpt>
   <trkpt lat="-26.48722" lon="28.067590000000003">
    <ele>1485.0</ele>
   </trkpt>
   <trkpt lat="-26.486421252900445" lon="28.067935016775667">
    <ele>1485.38</ele>
   </trkpt>
   <trkpt lat="-26.485622504971573" lon="28.06828002875805">
    <ele>1485.4</ele>
   </trkpt>
   <trkpt lat="-26.484823756213444" lon="28.068625035947395">
    <ele>1484.3700000000001</ele>
   </trkpt>
   <trkpt lat="-26.484025006626084" lon="28.068970038343917">
    <ele>1481.74</ele>
   </trkpt>
   <trkpt lat="-26.483226256209537" lon="28.06931503594785">
    <ele>1477.95</ele>
   </trkpt>
   <trkpt lat="-26.482427504963848" lon="28.069660028759415">
    <ele>1474.28</ele>
   </trkpt>
   <trkpt lat="-26.481628752889055" lon="28.070005016778854">
    <ele>1473.5600000000002</ele>
   </trkpt>
   <trkpt lat="-26.48083" lon="28.07035">
    <ele>1473.94</ele>
   </trkpt>
   <trkpt lat="-26.480572505488194" lon="28.069624995119522">
    <ele>1475.95</ele>
   </trkpt>
   <trkpt lat="-26.48031500731494" lon="28.068899993485328">
    <ele>1479.0700000000002</ele>
   </trkpt>
   <trkpt lat="-26.480057505480282" lon="28.068174995097404">
    <ele>1481.92</ele>
   </trkpt>
   <trkpt lat="-26.4798" lon="28.06745">
    <ele>1484.82</ele>
   </trkpt>
   <trkpt lat="-26.480595389513734" lon="28.06710772071693">
    <ele>1484.08</ele>
   </trkpt>
   <trkpt lat="-26.481390778211377" lon="28.06676543669975">
    <ele>1483.74</ele>
   </trkpt>
   <trkpt lat="-26.482186166092877" lon="28.06642314794823">
    <ele>1485.27</ele>
   </trkpt>
   <trkpt lat="-26.482981553158204" lon="28.06608085446215">
    <ele>1488.31</ele>
   </trkpt>
   <trkpt lat="-26.483776939407317" lon="28.065738556241282">
    <ele>1492.0800000000002</ele>
   </trkpt>
   <trkpt lat="-26.484572324840176" lon="28.065396253285403">
    <ele>1494.21</ele>
   </trkpt>
   <trkpt lat="-26.485367709456742" lon="28.065053945594286">
    <ele>1494.65</ele>
   </trkpt>
   <trkpt lat="-26.486163093256962" lon="28.064711633167704">
    <ele>1493.8300000000002</ele>
   </trkpt>
   <trkpt lat="-26.486958476240815" lon="28.064369316005433">
    <ele>1492.8500000000001</ele>
   </trkpt>
   <trkpt lat="-26.487753858408254" lon="28.06402699410725">
    <ele>1492.4700000000003</ele>
   </trkpt>
   <trkpt lat="-26.488549239759244" lon="28.063684667472934">
    <ele>1492.3400000000001</ele>
   </trkpt>
   <trkpt lat="-26.489344620293735" lon="28.06334233610225">
    <ele>1491.72</ele>
   </trkpt>
   <trkpt lat="-26.490140000000004" lon="28.063000000000002">
    <ele>1490.9</ele>
   </trkpt>
   <trkpt lat="-26.490250000000003" lon="28.063190000000002">
    <ele>1490.2700000000002</ele>
   </trkpt>
   <trkpt lat="-26.490465001373348" lon="28.063829998643477">
    <ele>1488.5300000000002</ele>
   </trkpt>
   <trkpt lat="-26.49068" lon="28.064470000000004">
    <ele>1487.45</ele>
   </trkpt>
   <trkpt lat="-26.491270000447617" lon="28.064210002679058">
    <ele>1487.17</ele>
   </trkpt>
   <trkpt lat="-26.491860000424214" lon="28.063950002689406">
    <ele>1486.55</ele>
   </trkpt>
   <trkpt lat="-26.49245" lon="28.06369">
    <ele>1486.6800000000003</ele>
   </trkpt>
   <trkpt lat="-26.492140002769414" lon="28.062799997627945">
    <ele>1490.96</ele>
   </trkpt>
   <trkpt lat="-26.491830000000004" lon="28.06191">
    <ele>1497.3200000000002</ele>
   </trkpt>
   <trkpt lat="-26.491580000000003" lon="28.061230000000002">
    <ele>1497.9</ele>
   </trkpt>
   <trkpt lat="-26.49143" lon="28.060760000000002">
    <ele>1497.19</ele>
   </trkpt>
   <trkpt lat="-26.491380000000003" lon="28.06051">
    <ele>1496.5000000000002</ele>
   </trkpt>
   <trkpt lat="-26.491197799470473" lon="28.059627766592158">
    <ele>1495.2200000000003</ele>
   </trkpt>
   <trkpt lat="-26.491015593517666" lon="28.058745535980822">
    <ele>1495.7</ele>
   </trkpt>
   <trkpt lat="-26.490833382141652" lon="28.05786330816605">
    <ele>1497.23</ele>
   </trkpt>
   <trkpt lat="-26.490651165342502" lon="28.056981083147875">
    <ele>1498.85</ele>
   </trkpt>
   <trkpt lat="-26.49046894312026" lon="28.05609886092636">
    <ele>1503.47</ele>
   </trkpt>
   <trkpt lat="-26.490286715474998" lon="28.05521664150156">
    <ele>1505.6100000000001</ele>
   </trkpt>
   <trkpt lat="-26.49010448240676" lon="28.054334424873527">
    <ele>1507.17</ele>
   </trkpt>
   <trkpt lat="-26.48992224391563" lon="28.05345221104231">
    <ele>1508.68</ele>
   </trkpt>
   <trkpt lat="-26.48974" lon="28.052570000000003">
    <ele>1509.0</ele>
   </trkpt>
   <trkpt lat="-26.489640000991795" lon="28.05203999960903">
    <ele>1508.79</ele>
   </trkpt>
   <trkpt lat="-26.48954" lon="28.051510000000004">
    <ele>1508.7</ele>
   </trkpt>
   <trkpt lat="-26.48955" lon="28.05113">
    <ele>1508.4</ele>
   </trkpt>
   <trkpt lat="-26.489610000000003" lon="28.050960000000003">
    <ele>1508.25</ele>
   </trkpt>
   <trkpt lat="-26.48964" lon="28.050900000000002">
    <ele>1508.25</ele>
   </trkpt>
   <trkpt lat="-26.48976" lon="28.05083">
    <ele>1507.97</ele>
   </trkpt>
   <trkpt lat="-26.490439999963204" lon="28.050770000359247">
    <ele>1507.7</ele>
   </trkpt>
   <trkpt lat="-26.491120000000002" lon="28.050710000000002">
    <ele>1507.57</ele>
   </trkpt>
   <trkpt lat="-26.491390000000003" lon="28.050670000000004">
    <ele>1507.7500000000002</ele>
   </trkpt>
   <trkpt lat="-26.491780000000002" lon="28.050580000000004">
    <ele>1508.3200000000002</ele>
   </trkpt>
   <trkpt lat="-26.49218" lon="28.050400000000003">
    <ele>1508.65</ele>
   </trkpt>
   <trkpt lat="-26.49275666759337" lon="28.050040003597154">
    <ele>1509.3500000000001</ele>
   </trkpt>
   <trkpt lat="-26.49333333428368" lon="28.04968000358244">
    <ele>1510.3700000000001</ele>
   </trkpt>
   <trkpt lat="-26.493910000000003" lon="28.04932">
    <ele>1511.6000000000001</ele>
   </trkpt>
   <trkpt lat="-26.494220000000002" lon="28.049070000000004">
    <ele>1512.19</ele>
   </trkpt>
   <trkpt lat="-26.49452" lon="28.048730000000003">
    <ele>1512.9800000000002</ele>
   </trkpt>
   <trkpt lat="-26.494780000000002" lon="28.04858">
    <ele>1513.16</ele>
   </trkpt>
   <trkpt lat="-26.495420000000003" lon="28.047980000000003">
    <ele>1512.99</ele>
   </trkpt>
   <trkpt lat="-26.49566" lon="28.047710000000002">
    <ele>1513.0800000000002</ele>
   </trkpt>
   <trkpt lat="-26.495493027532913" lon="28.046772987754533">
    <ele>1514.2300000000002</ele>
   </trkpt>
   <trkpt lat="-26.495326048947483" lon="28.045835978231487">
    <ele>1517.6900000000003</ele>
   </trkpt>
   <trkpt lat="-26.495159064243776" lon="28.044898971430932">
    <ele>1522.8400000000001</ele>
   </trkpt>
   <trkpt lat="-26.49499207342185" lon="28.043961967352942">
    <ele>1526.24</ele>
   </trkpt>
   <trkpt lat="-26.494825076481767" lon="28.043024965997596">
    <ele>1526.3000000000002</ele>
   </trkpt>
   <trkpt lat="-26.494658073423594" lon="28.042087967364957">
    <ele>1525.71</ele>
   </trkpt>
   <trkpt lat="-26.494491064247395" lon="28.0411509714551">
    <ele>1526.2300000000002</ele>
   </trkpt>
   <trkpt lat="-26.49432404895322" lon="28.040213978268095">
    <ele>1528.0800000000002</ele>
   </trkpt>
   <trkpt lat="-26.49415702754115" lon="28.039276987804023">
    <ele>1532.46</ele>
   </trkpt>
   <trkpt lat="-26.493990000000004" lon="28.03834">
    <ele>1536.99</ele>
   </trkpt>
   <trkpt lat="-26.49369750580983" lon="28.037594994334544">
    <ele>1540.91</ele>
   </trkpt>
   <trkpt lat="-26.49340500775207" lon="28.036849992460517">
    <ele>1542.15</ele>
   </trkpt>
   <trkpt lat="-26.493112505826772" lon="28.036104994377897">
    <ele>1543.2100000000003</ele>
   </trkpt>
   <trkpt lat="-26.492820000000002" lon="28.03536">
    <ele>1544.73</ele>
   </trkpt>
   <trkpt lat="-26.49248600950761" lon="28.034533990398987">
    <ele>1548.69</ele>
   </trkpt>
   <trkpt lat="-26.49215201426101" lon="28.03370798559776">
    <ele>1551.32</ele>
   </trkpt>
   <trkpt lat="-26.49181801426031" lon="28.032881985596298">
    <ele>1554.4</ele>
   </trkpt>
   <trkpt lat="-26.491484009505598" lon="28.032055990394557">
    <ele>1556.28</ele>
   </trkpt>
   <trkpt lat="-26.49115" lon="28.03123">
    <ele>1559.15</ele>
   </trkpt>
   <trkpt lat="-26.491923334320884" lon="28.03085000512178">
    <ele>1559.3700000000001</ele>
   </trkpt>
   <trkpt lat="-26.49269666763561" lon="28.030470005131015">
    <ele>1558.78</ele>
   </trkpt>
   <trkpt lat="-26.493470000000002" lon="28.03009">
    <ele>1558.0800000000002</ele>
   </trkpt>
   <trkpt lat="-26.494216667644015" lon="28.029716671513828">
    <ele>1557.3500000000001</ele>
   </trkpt>
   <trkpt lat="-26.494963334316807" lon="28.029343338177508">
    <ele>1556.22</ele>
   </trkpt>
   <trkpt lat="-26.495710000000003" lon="28.02897">
    <ele>1555.73</ele>
   </trkpt>
   <trkpt lat="-26.49594" lon="28.02888">
    <ele>1555.3400000000001</ele>
   </trkpt>
   <trkpt lat="-26.496726670931274" lon="28.028488910305743">
    <ele>1554.14</ele>
   </trkpt>
   <trkpt lat="-26.49751334079664" lon="28.028097815257798">
    <ele>1553.16</ele>
   </trkpt>
   <trkpt lat="-26.498300009596058" lon="28.027706714855903">
    <ele>1551.5</ele>
   </trkpt>
   <trkpt lat="-26.499086677329466" lon="28.027315609099812">
    <ele>1549.74</ele>
   </trkpt>
   <trkpt lat="-26.49987334399682" lon="28.026924497989274">
    <ele>1547.3400000000001</ele>
   </trkpt>
   <trkpt lat="-26.500660009598075" lon="28.02653338152405">
    <ele>1545.22</ele>
   </trkpt>
   <trkpt lat="-26.50144667413316" lon="28.026142259703875">
    <ele>1542.79</ele>
   </trkpt>
   <trkpt lat="-26.502233337602046" lon="28.025751132528498">
    <ele>1541.0900000000001</ele>
   </trkpt>
   <trkpt lat="-26.503020000000003" lon="28.025360000000003">
    <ele>1539.7</ele>
   </trkpt>
   <trkpt lat="-26.502580012496484" lon="28.024513317134296">
    <ele>1540.89</ele>
   </trkpt>
   <trkpt lat="-26.502140019996492" lon="28.023666640752758">
    <ele>1542.17</ele>
   </trkpt>
   <trkpt lat="-26.50170002250016" lon="28.022819970855295">
    <ele>1543.74</ele>
   </trkpt>
   <trkpt lat="-26.501260020007624" lon="28.0219733074418">
    <ele>1546.4</ele>
   </trkpt>
   <trkpt lat="-26.500820012519014" lon="28.021126650512173">
    <ele>1548.52</ele>
   </trkpt>
   <trkpt lat="-26.500380000000003" lon="28.020280000000003">
    <ele>1549.3500000000001</ele>
   </trkpt>
   <trkpt lat="-26.500921798119634" lon="28.019505940753213">
    <ele>1549.13</ele>
   </trkpt>
   <trkpt lat="-26.501463592063278" lon="28.018731874207255">
    <ele>1548.8300000000002</ele>
   </trkpt>
   <trkpt lat="-26.50200538183079" lon="28.01795780036195">
    <ele>1547.95</ele>
   </trkpt>
   <trkpt lat="-26.502547167422055" lon="28.017183719217105">
    <ele>1547.3300000000002</ele>
   </trkpt>
   <trkpt lat="-26.50308894883691" lon="28.01640963077254">
    <ele>1546.66</ele>
   </trkpt>
   <trkpt lat="-26.503630726075233" lon="28.015635535028064">
    <ele>1545.1800000000003</ele>
   </trkpt>
   <trkpt lat="-26.504172499136867" lon="28.014861431983505">
    <ele>1543.66</ele>
   </trkpt>
   <trkpt lat="-26.504714268021697" lon="28.014087321638662">
    <ele>1540.69</ele>
   </trkpt>
   <trkpt lat="-26.50525603272956" lon="28.01331320399336">
    <ele>1539.0900000000001</ele>
   </trkpt>
   <trkpt lat="-26.505797793260342" lon="28.012539079047407">
    <ele>1537.0400000000002</ele>
   </trkpt>
   <trkpt lat="-26.50633954961389" lon="28.01176494680062">
    <ele>1534.39</ele>
   </trkpt>
   <trkpt lat="-26.50688130179007" lon="28.010990807252814">
    <ele>1532.64</ele>
   </trkpt>
   <trkpt lat="-26.507423049788745" lon="28.010216660403803">
    <ele>1533.7200000000003</ele>
   </trkpt>
   <trkpt lat="-26.50796479360977" lon="28.009442506253404">
    <ele>1536.2300000000002</ele>
   </trkpt>
   <trkpt lat="-26.508506533253012" lon="28.00866834480143">
    <ele>1536.8799999999999</ele>
   </trkpt>
   <trkpt lat="-26.509048268718335" lon="28.00789417604769">
    <ele>1536.21</ele>
   </trkpt>
   <trkpt lat="-26.509590000000003" lon="28.007120000000004">
    <ele>1533.95</ele>
   </trkpt>
   <trkpt lat="-26.508943338633948" lon="28.006568317803286">
    <ele>1536.19</ele>
   </trkpt>
   <trkpt lat="-26.50829667514625" lon="28.00601664181779">
    <ele>1538.44</ele>
   </trkpt>
   <trkpt lat="-26.50765000953701" lon="28.005464972043306">
    <ele>1541.9900000000002</ele>
   </trkpt>
   <trkpt lat="-26.50700334180629" lon="28.004913308479594">
    <ele>1544.17</ele>
   </trkpt>
   <trkpt lat="-26.506356671954194" lon="28.004361651126434">
    <ele>1546.41</ele>
   </trkpt>
   <trkpt lat="-26.50571" lon="28.00381">
    <ele>1548.18</ele>
   </trkpt>
   <trkpt lat="-26.505012508967162" lon="28.003203724238617">
    <ele>1550.5600000000002</ele>
   </trkpt>
   <trkpt lat="-26.504315015372264" lon="28.002597455838377">
    <ele>1552.66</ele>
   </trkpt>
   <trkpt lat="-26.503617519215414" lon="28.001991194799004">
    <ele>1554.27</ele>
   </trkpt>
   <trkpt lat="-26.502920020496735" lon="28.00138494112021">
    <ele>1556.65</ele>
   </trkpt>
   <trkpt lat="-26.502222519216325" lon="28.00077869480171">
    <ele>1560.24</ele>
   </trkpt>
   <trkpt lat="-26.501525015374302" lon="28.000172455843213">
    <ele>1563.8500000000001</ele>
   </trkpt>
   <trkpt lat="-26.500827508970772" lon="27.99956622424443">
    <ele>1568.75</ele>
   </trkpt>
   <trkpt lat="-26.500130000000002" lon="27.998960000000004">
    <ele>1576.0600000000002</ele>
   </trkpt>
   <trkpt lat="-26.500120000000003" lon="27.998920000000002">
    <ele>1576.2200000000003</ele>
   </trkpt>
   <trkpt lat="-26.500120000000003" lon="27.998870000000004">
    <ele>1576.3100000000002</ele>
   </trkpt>
   <trkpt lat="-26.500130000000002" lon="27.99884">
    <ele>1576.3100000000002</ele>
   </trkpt>
   <trkpt lat="-26.500180000000004" lon="27.998720000000002">
    <ele>1576.3500000000001</ele>
   </trkpt>
   <trkpt lat="-26.500658581179806" lon="27.998037159918365">
    <ele>1573.15</ele>
   </trkpt>
   <trkpt lat="-26.50113715910989" lon="27.997354314149096">
    <ele>1568.39</ele>
   </trkpt>
   <trkpt lat="-26.501615733790167" lon="27.99667146269208">
    <ele>1561.1800000000003</ele>
   </trkpt>
   <trkpt lat="-26.50209430522054" lon="27.995988605547176">
    <ele>1555.0600000000002</ele>
   </trkpt>
   <trkpt lat="-26.502572873400915" lon="27.995305742714265">
    <ele>1550.96</ele>
   </trkpt>
   <trkpt lat="-26.503051438331198" lon="27.99462287419322">
    <ele>1547.49</ele>
   </trkpt>
   <trkpt lat="-26.50353" lon="27.993940000000002">
    <ele>1543.97</ele>
   </trkpt>
   <trkpt lat="-26.50406848594199" lon="27.993176196803446">
    <ele>1541.46</ele>
   </trkpt>
   <trkpt lat="-26.504606967817594" lon="27.992412386447484">
    <ele>1540.5900000000001</ele>
   </trkpt>
   <trkpt lat="-26.505145445626653" lon="27.99164856893193">
    <ele>1540.19</ele>
   </trkpt>
   <trkpt lat="-26.50568391936906" lon="27.990884744256608">
    <ele>1539.74</ele>
   </trkpt>
   <trkpt lat="-26.50622238904467" lon="27.990120912421332">
    <ele>1539.0</ele>
   </trkpt>
   <trkpt lat="-26.50676085465335" lon="27.989357073425925">
    <ele>1539.3600000000001</ele>
   </trkpt>
   <trkpt lat="-26.507299316194967" lon="27.988593227270197">
    <ele>1540.58</ele>
   </trkpt>
   <trkpt lat="-26.50783777366939" lon="27.98782937395398">
    <ele>1540.97</ele>
   </trkpt>
   <trkpt lat="-26.508376227076482" lon="27.987065513477077">
    <ele>1539.71</ele>
   </trkpt>
   <trkpt lat="-26.508914676416104" lon="27.986301645839323">
    <ele>1538.93</ele>
   </trkpt>
   <trkpt lat="-26.50945312168813" lon="27.985537771040523">
    <ele>1538.04</ele>
   </trkpt>
   <trkpt lat="-26.509991562892427" lon="27.9847738890805">
    <ele>1535.65</ele>
   </trkpt>
   <trkpt lat="-26.510530000000003" lon="27.98401">
    <ele>1530.8100000000002</ele>
   </trkpt>
   <trkpt lat="-26.511210730022345" lon="27.984599240309528">
    <ele>1527.74</ele>
   </trkpt>
   <trkpt lat="-26.511891457624138" lon="27.9851884876034">
    <ele>1525.3700000000001</ele>
   </trkpt>
   <trkpt lat="-26.512572182805282" lon="27.985777741881876">
    <ele>1521.2800000000002</ele>
   </trkpt>
   <trkpt lat="-26.513252905565672" lon="27.986367003145226">
    <ele>1519.12</ele>
   </trkpt>
   <trkpt lat="-26.513933625905207" lon="27.986956271393716">
    <ele>1516.4</ele>
   </trkpt>
   <trkpt lat="-26.514614343823787" lon="27.987545546627615">
    <ele>1515.23</ele>
   </trkpt>
   <trkpt lat="-26.51529505932132" lon="27.98813482884718">
    <ele>1513.89</ele>
   </trkpt>
   <trkpt lat="-26.5159757723977" lon="27.988724118052687">
    <ele>1512.8700000000001</ele>
   </trkpt>
   <trkpt lat="-26.516656483052827" lon="27.989313414244393">
    <ele>1511.8</ele>
   </trkpt>
   <trkpt lat="-26.51733719128659" lon="27.98990271742257">
    <ele>1510.82</ele>
   </trkpt>
   <trkpt lat="-26.518017897098904" lon="27.990492027587482">
    <ele>1509.7900000000002</ele>
   </trkpt>
   <trkpt lat="-26.51869860048966" lon="27.991081344739392">
    <ele>1508.25</ele>
   </trkpt>
   <trkpt lat="-26.519379301458756" lon="27.991670668878566">
    <ele>1506.66</ele>
   </trkpt>
   <trkpt lat="-26.52006" lon="27.99226">
    <ele>1505.46</ele>
   </trkpt>
   <trkpt lat="-26.519508985755355" lon="27.993042172817713">
    <ele>1506.85</ele>
   </trkpt>
   <trkpt lat="-26.51895796724472" lon="27.99382433812821">
    <ele>1508.2700000000002</ele>
   </trkpt>
   <trkpt lat="-26.51840694446823" lon="27.994606495931677">
    <ele>1509.89</ele>
   </trkpt>
   <trkpt lat="-26.517855917426044" lon="27.995388646228324">
    <ele>1510.49</ele>
   </trkpt>
   <trkpt lat="-26.517304886118293" lon="27.99617078901833">
    <ele>1511.2</ele>
   </trkpt>
   <trkpt lat="-26.516753850545125" lon="27.996952924301898">
    <ele>1511.8200000000002</ele>
   </trkpt>
   <trkpt lat="-26.516202810706687" lon="27.99773505207923">
    <ele>1512.7</ele>
   </trkpt>
   <trkpt lat="-26.515651766603117" lon="27.998517172350503">
    <ele>1513.5700000000002</ele>
   </trkpt>
   <trkpt lat="-26.515100718234564" lon="27.999299285115924">
    <ele>1514.22</ele>
   </trkpt>
   <trkpt lat="-26.514549665601162" lon="28.00008139037569">
    <ele>1515.26</ele>
   </trkpt>
   <trkpt lat="-26.513998608703066" lon="28.000863488129987">
    <ele>1516.7100000000003</ele>
   </trkpt>
   <trkpt lat="-26.51344754754042" lon="28.00164557837901">
    <ele>1517.5500000000002</ele>
   </trkpt>
   <trkpt lat="-26.512896482113355" lon="28.00242766112296">
    <ele>1519.4900000000002</ele>
   </trkpt>
   <trkpt lat="-26.512345412422025" lon="28.00320973636203">
    <ele>1520.92</ele>
   </trkpt>
   <trkpt lat="-26.511794338466565" lon="28.00399180409641">
    <ele>1522.93</ele>
   </trkpt>
   <trkpt lat="-26.511243260247134" lon="28.0047738643263">
    <ele>1524.8100000000002</ele>
   </trkpt>
   <trkpt lat="-26.51069217776386" lon="28.00555591705189">
    <ele>1527.92</ele>
   </trkpt>
   <trkpt lat="-26.510141091016894" lon="28.00633796227338">
    <ele>1531.0700000000002</ele>
   </trkpt>
   <trkpt lat="-26.509590000000003" lon="28.007120000000004">
    <ele>1533.95</ele>
   </trkpt>
   <trkpt lat="-26.509048268712743" lon="28.007894176055686">
    <ele>1536.21</ele>
   </trkpt>
   <trkpt lat="-26.508506533247417" lon="28.00866834480942">
    <ele>1536.8799999999999</ele>
   </trkpt>
   <trkpt lat="-26.50796479360417" lon="28.009442506261394">
    <ele>1535.9900000000002</ele>
   </trkpt>
   <trkpt lat="-26.507423049783146" lon="28.0102166604118">
    <ele>1533.5400000000002</ele>
   </trkpt>
   <trkpt lat="-26.506881301784475" lon="28.010990807260807">
    <ele>1532.64</ele>
   </trkpt>
   <trkpt lat="-26.506339549608295" lon="28.01176494680861">
    <ele>1534.39</ele>
   </trkpt>
   <trkpt lat="-26.505797793254743" lon="28.0125390790554">
    <ele>1537.0400000000002</ele>
   </trkpt>
   <trkpt lat="-26.50525603272397" lon="28.013313204001353">
    <ele>1539.0900000000001</ele>
   </trkpt>
   <trkpt lat="-26.504714268016095" lon="28.014087321646652">
    <ele>1540.69</ele>
   </trkpt>
   <trkpt lat="-26.50417249913127" lon="28.0148614319915">
    <ele>1543.66</ele>
   </trkpt>
   <trkpt lat="-26.50363072606963" lon="28.01563553503606">
    <ele>1545.1800000000003</ele>
   </trkpt>
   <trkpt lat="-26.503088948831312" lon="28.01640963078053">
    <ele>1546.66</ele>
   </trkpt>
   <trkpt lat="-26.50254716741646" lon="28.017183719225095">
    <ele>1547.39</ele>
   </trkpt>
   <trkpt lat="-26.502005381825203" lon="28.01795780036994">
    <ele>1548.13</ele>
   </trkpt>
   <trkpt lat="-26.501463592057682" lon="28.018731874215245">
    <ele>1548.8300000000002</ele>
   </trkpt>
   <trkpt lat="-26.500921798114035" lon="28.019505940761206">
    <ele>1549.13</ele>
   </trkpt>
   <trkpt lat="-26.500380000000003" lon="28.020280000000003">
    <ele>1549.3500000000001</ele>
   </trkpt>
   <trkpt lat="-26.50082001248455" lon="28.02112665044586">
    <ele>1548.52</ele>
   </trkpt>
   <trkpt lat="-26.50126001997316" lon="28.021973307375486">
    <ele>1546.4</ele>
   </trkpt>
   <trkpt lat="-26.501700022465695" lon="28.02281997078898">
    <ele>1543.74</ele>
   </trkpt>
   <trkpt lat="-26.502140019962027" lon="28.023666640686447">
    <ele>1542.17</ele>
   </trkpt>
   <trkpt lat="-26.50258001246202" lon="28.02451331706798">
    <ele>1540.89</ele>
   </trkpt>
   <trkpt lat="-26.503020000000003" lon="28.025360000000003">
    <ele>1539.5200000000002</ele>
   </trkpt>
   <trkpt lat="-26.5034462675211" lon="28.02620747798908">
    <ele>1539.0700000000002</ele>
   </trkpt>
   <trkpt lat="-26.50387253003615" lon="28.02705496226624">
    <ele>1538.3500000000001</ele>
   </trkpt>
   <trkpt lat="-26.504298787545018" lon="28.027902452831587">
    <ele>1537.6900000000003</ele>
   </trkpt>
   <trkpt lat="-26.504725040047564" lon="28.028749949685203">
    <ele>1537.14</ele>
   </trkpt>
   <trkpt lat="-26.505151287543672" lon="28.029597452827176">
    <ele>1536.78</ele>
   </trkpt>
   <trkpt lat="-26.505577530033204" lon="28.0304449622576">
    <ele>1536.71</ele>
   </trkpt>
   <trkpt lat="-26.506003767516034" lon="28.031292477976564">
    <ele>1535.53</ele>
   </trkpt>
   <trkpt lat="-26.50643" lon="28.032140000000002">
    <ele>1532.6000000000001</ele>
   </trkpt>
   <trkpt lat="-26.506800003996393" lon="28.032899995043227">
    <ele>1530.0200000000002</ele>
   </trkpt>
   <trkpt lat="-26.50717000396655" lon="28.033659994981864">
    <ele>1527.3000000000002</ele>
   </trkpt>
   <trkpt lat="-26.507540000000002" lon="28.03442">
    <ele>1525.7</ele>
   </trkpt>
   <trkpt lat="-26.50739" lon="28.034470000000002">
    <ele>1525.77</ele>
   </trkpt>
   <trkpt lat="-26.50669749998043" lon="28.034495000453024">
    <ele>1527.3000000000002</ele>
   </trkpt>
   <trkpt lat="-26.506004999956495" lon="28.03452000060465">
    <ele>1528.45</ele>
   </trkpt>
   <trkpt lat="-26.505312499928205" lon="28.034545000454894">
    <ele>1528.93</ele>
   </trkpt>
   <trkpt lat="-26.504620000000003" lon="28.034570000000002">
    <ele>1529.6100000000001</ele>
   </trkpt>
   <trkpt lat="-26.50376000002401" lon="28.03461400131745">
    <ele>1530.85</ele>
   </trkpt>
   <trkpt lat="-26.50290000003453" lon="28.03465800197622">
    <ele>1532.3300000000002</ele>
   </trkpt>
   <trkpt lat="-26.502040000031553" lon="28.03470200197633">
    <ele>1533.8500000000001</ele>
   </trkpt>
   <trkpt lat="-26.501180000015083" lon="28.03474600131784">
    <ele>1536.1200000000001</ele>
   </trkpt>
   <trkpt lat="-26.500320000000002" lon="28.03479">
    <ele>1537.43</ele>
   </trkpt>
   <trkpt lat="-26.50005" lon="28.034900000000004">
    <ele>1537.7200000000003</ele>
   </trkpt>
   <trkpt lat="-26.49929250451608" lon="28.03533001983588">
    <ele>1537.65</ele>
   </trkpt>
   <trkpt lat="-26.498535007743456" lon="28.03576003400288">
    <ele>1536.34</ele>
   </trkpt>
   <trkpt lat="-26.497777509682155" lon="28.036190042501268">
    <ele>1535.03</ele>
   </trkpt>
   <trkpt lat="-26.49702001033225" lon="28.036620045331297">
    <ele>1533.65</ele>
   </trkpt>
   <trkpt lat="-26.496262509693814" lon="28.03705004249322">
    <ele>1532.7</ele>
   </trkpt>
   <trkpt lat="-26.495505007766884" lon="28.037480033987286">
    <ele>1532.14</ele>
   </trkpt>
   <trkpt lat="-26.494747504551537" lon="28.037910019813747">
    <ele>1533.22</ele>
   </trkpt>
   <trkpt lat="-26.493990000000004" lon="28.03834">
    <ele>1536.99</ele>
   </trkpt>
   <trkpt lat="-26.494157027529926" lon="28.03927698774108">
    <ele>1532.46</ele>
   </trkpt>
   <trkpt lat="-26.494324048942" lon="28.04021397820516">
    <ele>1528.0800000000002</ele>
   </trkpt>
   <trkpt lat="-26.494491064236176" lon="28.041150971392156">
    <ele>1526.2300000000002</ele>
   </trkpt>
   <trkpt lat="-26.494658073412378" lon="28.042087967302013">
    <ele>1525.71</ele>
   </trkpt>
   <trkpt lat="-26.494825076470548" lon="28.043024965934652">
    <ele>1526.3000000000002</ele>
   </trkpt>
   <trkpt lat="-26.49499207341063" lon="28.04396196729">
    <ele>1526.24</ele>
   </trkpt>
   <trkpt lat="-26.495159064232563" lon="28.044898971367985">
    <ele>1522.8400000000001</ele>
   </trkpt>
   <trkpt lat="-26.49532604893627" lon="28.045835978168544">
    <ele>1517.6900000000003</ele>
   </trkpt>
   <trkpt lat="-26.4954930275217" lon="28.04677298769159">
    <ele>1514.2300000000002</ele>
   </trkpt>
   <trkpt lat="-26.49566" lon="28.047710000000002">
    <ele>1513.0800000000002</ele>
   </trkpt>
   <trkpt lat="-26.495420000000003" lon="28.047980000000003">
    <ele>1512.99</ele>
   </trkpt>
   <trkpt lat="-26.494780000000002" lon="28.04858">
    <ele>1513.16</ele>
   </trkpt>
   <trkpt lat="-26.49452" lon="28.048730000000003">
    <ele>1512.9800000000002</ele>
   </trkpt>
   <trkpt lat="-26.494220000000002" lon="28.049070000000004">
    <ele>1512.19</ele>
   </trkpt>
   <trkpt lat="-26.493910000000003" lon="28.04932">
    <ele>1511.6000000000001</ele>
   </trkpt>
   <trkpt lat="-26.493333334212775" lon="28.0496800036267">
    <ele>1510.3700000000001</ele>
   </trkpt>
   <trkpt lat="-26.492756667522464" lon="28.050040003641417">
    <ele>1509.3500000000001</ele>
   </trkpt>
   <trkpt lat="-26.49218" lon="28.050400000000003">
    <ele>1508.65</ele>
   </trkpt>
   <trkpt lat="-26.491780000000002" lon="28.050580000000004">
    <ele>1508.16</ele>
   </trkpt>
   <trkpt lat="-26.491390000000003" lon="28.050670000000004">
    <ele>1507.7500000000002</ele>
   </trkpt>
   <trkpt lat="-26.491120000000002" lon="28.050710000000002">
    <ele>1507.57</ele>
   </trkpt>
   <trkpt lat="-26.490440000061884" lon="28.050770000350532">
    <ele>1507.7</ele>
   </trkpt>
   <trkpt lat="-26.48976" lon="28.05083">
    <ele>1507.97</ele>
   </trkpt>
   <trkpt lat="-26.48964" lon="28.050900000000002">
    <ele>1508.25</ele>
   </trkpt>
   <trkpt lat="-26.489610000000003" lon="28.050960000000003">
    <ele>1508.25</ele>
   </trkpt>
   <trkpt lat="-26.48955" lon="28.05113">
    <ele>1508.4</ele>
   </trkpt>
   <trkpt lat="-26.48954" lon="28.051510000000004">
    <ele>1508.7</ele>
   </trkpt>
   <trkpt lat="-26.489640000965373" lon="28.052039999469">
    <ele>1508.9800000000002</ele>
   </trkpt>
   <trkpt lat="-26.48974" lon="28.052570000000003">
    <ele>1509.0</ele>
   </trkpt>
   <trkpt lat="-26.489933348778088" lon="28.05351165874265">
    <ele>1508.68</ele>
   </trkpt>
   <trkpt lat="-26.49012669137787" lon="28.054453320652538">
    <ele>1507.17</ele>
   </trkpt>
   <trkpt lat="-26.49032002779927" lon="28.05539498572961">
    <ele>1503.47</ele>
   </trkpt>
   <trkpt lat="-26.49051335804222" lon="28.05633665397379">
    <ele>1500.6200000000001</ele>
   </trkpt>
   <trkpt lat="-26.49070668210664" lon="28.057278325385024">
    <ele>1498.4</ele>
   </trkpt>
   <trkpt lat="-26.490900000000003" lon="28.058220000000002">
    <ele>1496.38</ele>
   </trkpt>
   <trkpt lat="-26.490424999976465" lon="28.05843500097186">
    <ele>1495.6100000000001</ele>
   </trkpt>
   <trkpt lat="-26.489950000000004" lon="28.058650000000004">
    <ele>1495.3500000000001</ele>
   </trkpt>
   <trkpt lat="-26.48985" lon="28.058740000000004">
    <ele>1495.3500000000001</ele>
   </trkpt>
   <trkpt lat="-26.489810000000002" lon="28.05889">
    <ele>1494.8400000000001</ele>
   </trkpt>
   <trkpt lat="-26.489790000000003" lon="28.0591">
    <ele>1494.8400000000001</ele>
   </trkpt>
   <trkpt lat="-26.489690000000003" lon="28.059130000000003">
    <ele>1494.63</ele>
   </trkpt>
   <trkpt lat="-26.48945" lon="28.05909">
    <ele>1493.7</ele>
   </trkpt>
   <trkpt lat="-26.488722500687377" lon="28.059347504889892">
    <ele>1492.49</ele>
   </trkpt>
   <trkpt lat="-26.48799500091277" lon="28.05960500652108">
    <ele>1491.78</ele>
   </trkpt>
   <trkpt lat="-26.487267500676186" lon="28.0598625048937">
    <ele>1491.15</ele>
   </trkpt>
   <trkpt lat="-26.48654" lon="28.06012">
    <ele>1491.0100000000002</ele>
   </trkpt>
   <trkpt lat="-26.486520000000002" lon="28.060560000000002">
    <ele>1491.1000000000001</ele>
   </trkpt>
   <trkpt lat="-26.48655" lon="28.06117">
    <ele>1491.5500000000002</ele>
   </trkpt>
  </trkseg>
 </trk>
</gpx>
