<?xml version="1.0" encoding="UTF-8"?>
<gpx creator="StravaGPX" version="1.1" xmlns="http://www.topografix.com/GPX/1/1" xmlns:xsi="http://www.w3.org/2001/XMLSchema-instance" xsi:schemaLocation="http://www.topografix.com/GPX/1/1 http://www.topografix.com/GPX/1/1/gpx.xsd">
 <metadata>
  <name>Madmac 5km</name>
  <author>
   <name>Racepass Strava</name>
   <link href="https://www.strava.com/athletes/103770724"/>
  </author>
  <copyright author="OpenStreetMap contributors">
   <year>2020</year>
   <license>https://www.openstreetmap.org/copyright</license>
  </copyright>
  <link href="https://www.strava.com/routes/3487801764862617626"/>
 </metadata>
 <trk>
  <name>Madmac 5km</name>
  <link href="https://www.strava.com/routes/3487801764862617626"/>
  <type>running</type>
  <trkseg>
   <trkpt lat="-26.487890000000004" lon="28.062690000000003">
    <ele>1493.2900000000002</ele>
   </trkpt>
   <trkpt lat="-26.48853" lon="28.062420000000003">
    <ele>1493.6</ele>
   </trkpt>
   <trkpt lat="-26.48863" lon="28.062340000000003">
    <ele>1493.6</ele>
   </trkpt>
   <trkpt lat="-26.489265000207745" lon="28.062065001542987">
    <ele>1493.7600000000002</ele>
   </trkpt>
   <trkpt lat="-26.489900000000002" lon="28.061790000000002">
    <ele>1494.4400000000003</ele>
   </trkpt>
   <trkpt lat="-26.489863338934644" lon="28.060893332744783">
    <ele>1494.0600000000002</ele>
   </trkpt>
   <trkpt lat="-26.48982667226729" lon="28.059996666061473">
    <ele>1494.38</ele>
   </trkpt>
   <trkpt lat="-26.489790000000003" lon="28.0591">
    <ele>1494.8400000000001</ele>
   </trkpt>
   <trkpt lat="-26.489810000000002" lon="28.05889">
    <ele>1494.8400000000001</ele>
   </trkpt>
   <trkpt lat="-26.48985" lon="28.058740000000004">
    <ele>1495.3500000000001</ele>
   </trkpt>
   <trkpt lat="-26.489950000000004" lon="28.058650000000004">
    <ele>1495.3500000000001</ele>
   </trkpt>
   <trkpt lat="-26.490425000345624" lon="28.058435000804767">
    <ele>1495.6100000000001</ele>
   </trkpt>
   <trkpt lat="-26.490900000000003" lon="28.058220000000002">
    <ele>1496.38</ele>
   </trkpt>
   <trkpt lat="-26.491076671659492" lon="28.05906666405492">
    <ele>1495.2900000000002</ele>
   </trkpt>
   <trkpt lat="-26.491253338324192" lon="28.05991333071208">
    <ele>1495.5200000000002</ele>
   </trkpt>
   <trkpt lat="-26.49143" lon="28.060760000000002">
    <ele>1497.19</ele>
   </trkpt>
   <trkpt lat="-26.491580000000003" lon="28.061230000000002">
    <ele>1497.9</ele>
   </trkpt>
   <trkpt lat="-26.491830000000004" lon="28.06191">
    <ele>1497.3200000000002</ele>
   </trkpt>
   <trkpt lat="-26.492140002749927" lon="28.062799997571997">
    <ele>1490.96</ele>
   </trkpt>
   <trkpt lat="-26.49245" lon="28.06369">
    <ele>1486.6800000000003</ele>
   </trkpt>
   <trkpt lat="-26.49295" lon="28.063480000000002">
    <ele>1486.55</ele>
   </trkpt>
   <trkpt lat="-26.492715001670636" lon="28.06278999862434">
    <ele>1487.65</ele>
   </trkpt>
   <trkpt lat="-26.49248" lon="28.0621">
    <ele>1489.65</ele>
   </trkpt>
   <trkpt lat="-26.49248" lon="28.062020000000004">
    <ele>1489.8</ele>
   </trkpt>
   <trkpt lat="-26.492490000000004" lon="28.06201">
    <ele>1489.8</ele>
   </trkpt>
   <trkpt lat="-26.4930766671019" lon="28.06176000255192">
    <ele>1489.7300000000002</ele>
   </trkpt>
   <trkpt lat="-26.493663333768282" lon="28.061510002552073">
    <ele>1489.68</ele>
   </trkpt>
   <trkpt lat="-26.49425" lon="28.06126">
    <ele>1489.53</ele>
   </trkpt>
   <trkpt lat="-26.494993334144322" lon="28.060926670961567">
    <ele>1489.66</ele>
   </trkpt>
   <trkpt lat="-26.495736667514393" lon="28.060593337611834">
    <ele>1489.8</ele>
   </trkpt>
   <trkpt lat="-26.496480000000002" lon="28.060260000000003">
    <ele>1490.1200000000001</ele>
   </trkpt>
   <trkpt lat="-26.496660000000002" lon="28.060160000000003">
    <ele>1490.1200000000001</ele>
   </trkpt>
   <trkpt lat="-26.49747000170008" lon="28.059812009805547">
    <ele>1490.21</ele>
   </trkpt>
   <trkpt lat="-26.498280002556232" lon="28.059464014705945">
    <ele>1490.66</ele>
   </trkpt>
   <trkpt lat="-26.499090002568405" lon="28.059116014700976">
    <ele>1491.51</ele>
   </trkpt>
   <trkpt lat="-26.499900001736563" lon="28.05876800979038">
    <ele>1492.3700000000001</ele>
   </trkpt>
   <trkpt lat="-26.50071" lon="28.05842">
    <ele>1493.78</ele>
   </trkpt>
   <trkpt lat="-26.500967505758616" lon="28.059162494994183">
    <ele>1491.51</ele>
   </trkpt>
   <trkpt lat="-26.501225007674876" lon="28.059904993316025">
    <ele>1489.48</ele>
   </trkpt>
   <trkpt lat="-26.501482505748744" lon="28.060647494965544">
    <ele>1487.16</ele>
   </trkpt>
   <trkpt lat="-26.50174" lon="28.061390000000003">
    <ele>1484.93</ele>
   </trkpt>
   <trkpt lat="-26.501630000000002" lon="28.061420000000002">
    <ele>1484.7800000000002</ele>
   </trkpt>
   <trkpt lat="-26.500804001702896" lon="28.06177001006489">
    <ele>1485.1000000000001</ele>
   </trkpt>
   <trkpt lat="-26.499978002551995" lon="28.062120015098067">
    <ele>1485.26</ele>
   </trkpt>
   <trkpt lat="-26.499152002547326" lon="28.062470015099777">
    <ele>1485.5600000000002</ele>
   </trkpt>
   <trkpt lat="-26.498326001688927" lon="28.06282001007028">
    <ele>1485.7300000000002</ele>
   </trkpt>
   <trkpt lat="-26.497500000000002" lon="28.063170000000003">
    <ele>1486.21</ele>
   </trkpt>
   <trkpt lat="-26.49725000176872" lon="28.06244999832548">
    <ele>1486.99</ele>
   </trkpt>
   <trkpt lat="-26.497000000000003" lon="28.06173">
    <ele>1487.99</ele>
   </trkpt>
   <trkpt lat="-26.496241668525556" lon="28.062056677442847">
    <ele>1487.63</ele>
   </trkpt>
   <trkpt lat="-26.495483336307434" lon="28.062383350575004">
    <ele>1487.26</ele>
   </trkpt>
   <trkpt lat="-26.49472500334566" lon="28.062710019396643">
    <ele>1486.8000000000002</ele>
   </trkpt>
   <trkpt lat="-26.493966669640287" lon="28.06303668390798">
    <ele>1486.4100000000003</ele>
   </trkpt>
   <trkpt lat="-26.493208335191326" lon="28.063363344109202">
    <ele>1486.3700000000001</ele>
   </trkpt>
   <trkpt lat="-26.49245" lon="28.06369">
    <ele>1486.67</ele>
   </trkpt>
   <trkpt lat="-26.492140002769414" lon="28.062799997627945">
    <ele>1490.96</ele>
   </trkpt>
   <trkpt lat="-26.491830000000004" lon="28.06191">
    <ele>1497.3200000000002</ele>
   </trkpt>
   <trkpt lat="-26.491580000000003" lon="28.061230000000002">
    <ele>1497.9</ele>
   </trkpt>
   <trkpt lat="-26.49143" lon="28.060760000000002">
    <ele>1497.19</ele>
   </trkpt>
   <trkpt lat="-26.491253338330154" lon="28.059913330740653">
    <ele>1495.5200000000002</ele>
   </trkpt>
   <trkpt lat="-26.491076671665457" lon="28.059066664083495">
    <ele>1495.2900000000002</ele>
   </trkpt>
   <trkpt lat="-26.490900000000003" lon="28.058220000000002">
    <ele>1496.38</ele>
   </trkpt>
   <trkpt lat="-26.490424999976465" lon="28.05843500097186">
    <ele>1495.6100000000001</ele>
   </trkpt>
   <trkpt lat="-26.489950000000004" lon="28.058650000000004">
    <ele>1495.3500000000001</ele>
   </trkpt>
   <trkpt lat="-26.48985" lon="28.058740000000004">
    <ele>1495.3500000000001</ele>
   </trkpt>
   <trkpt lat="-26.489810000000002" lon="28.05889">
    <ele>1494.8400000000001</ele>
   </trkpt>
   <trkpt lat="-26.489790000000003" lon="28.0591">
    <ele>1494.8400000000001</ele>
   </trkpt>
   <trkpt lat="-26.489690000000003" lon="28.059130000000003">
    <ele>1494.63</ele>
   </trkpt>
   <trkpt lat="-26.48945" lon="28.05909">
    <ele>1493.7</ele>
   </trkpt>
   <trkpt lat="-26.488722500687377" lon="28.059347504889892">
    <ele>1492.49</ele>
   </trkpt>
   <trkpt lat="-26.48799500091277" lon="28.05960500652108">
    <ele>1491.78</ele>
   </trkpt>
   <trkpt lat="-26.487267500676186" lon="28.0598625048937">
    <ele>1491.3700000000001</ele>
   </trkpt>
   <trkpt lat="-26.48654" lon="28.06012">
    <ele>1491.0100000000002</ele>
   </trkpt>
   <trkpt lat="-26.486520000000002" lon="28.060560000000002">
    <ele>1491.1000000000001</ele>
   </trkpt>
   <trkpt lat="-26.48656" lon="28.06124">
    <ele>1491.6</ele>
   </trkpt>
  </trkseg>
 </trk>
</gpx>
