<?xml version="1.0" encoding="UTF-8"?>
<gpx creator="StravaGPX" version="1.1" xmlns="http://www.topografix.com/GPX/1/1" xmlns:xsi="http://www.w3.org/2001/XMLSchema-instance" xsi:schemaLocation="http://www.topografix.com/GPX/1/1 http://www.topografix.com/GPX/1/1/gpx.xsd">
 <metadata>
  <name>Madmac 11km</name>
  <author>
   <name>Racepass Strava</name>
   <link href="https://www.strava.com/athletes/103770724"/>
  </author>
  <copyright author="OpenStreetMap contributors">
   <year>2020</year>
   <license>https://www.openstreetmap.org/copyright</license>
  </copyright>
  <link href="https://www.strava.com/routes/3487807785668489242"/>
 </metadata>
 <trk>
  <name>Madmac 11km</name>
  <link href="https://www.strava.com/routes/3487807785668489242"/>
  <type>running</type>
  <trkseg>
   <trkpt lat="-26.48767" lon="28.062780000000004">
    <ele>1493.3200000000002</ele>
   </trkpt>
   <trkpt lat="-26.48810000001964" lon="28.062600000712212">
    <ele>1493.3100000000002</ele>
   </trkpt>
   <trkpt lat="-26.48853" lon="28.062420000000003">
    <ele>1493.6</ele>
   </trkpt>
   <trkpt lat="-26.48863" lon="28.062340000000003">
    <ele>1493.6</ele>
   </trkpt>
   <trkpt lat="-26.489265000207745" lon="28.062065001542987">
    <ele>1493.7600000000002</ele>
   </trkpt>
   <trkpt lat="-26.489900000000002" lon="28.061790000000002">
    <ele>1494.4400000000003</ele>
   </trkpt>
   <trkpt lat="-26.489863338934644" lon="28.060893332744783">
    <ele>1494.0600000000002</ele>
   </trkpt>
   <trkpt lat="-26.48982667226729" lon="28.059996666061473">
    <ele>1494.38</ele>
   </trkpt>
   <trkpt lat="-26.489790000000003" lon="28.0591">
    <ele>1494.8400000000001</ele>
   </trkpt>
   <trkpt lat="-26.489810000000002" lon="28.05889">
    <ele>1494.8400000000001</ele>
   </trkpt>
   <trkpt lat="-26.48985" lon="28.058740000000004">
    <ele>1495.3500000000001</ele>
   </trkpt>
   <trkpt lat="-26.489950000000004" lon="28.058650000000004">
    <ele>1495.3500000000001</ele>
   </trkpt>
   <trkpt lat="-26.490425000345624" lon="28.058435000804767">
    <ele>1495.6100000000001</ele>
   </trkpt>
   <trkpt lat="-26.490900000000003" lon="28.058220000000002">
    <ele>1496.38</ele>
   </trkpt>
   <trkpt lat="-26.49070668211418" lon="28.057278325421784">
    <ele>1498.4</ele>
   </trkpt>
   <trkpt lat="-26.490513358049757" lon="28.056336654010547">
    <ele>1500.6200000000001</ele>
   </trkpt>
   <trkpt lat="-26.49032002780681" lon="28.055394985766366">
    <ele>1505.6100000000001</ele>
   </trkpt>
   <trkpt lat="-26.490126691385413" lon="28.054453320689294">
    <ele>1507.17</ele>
   </trkpt>
   <trkpt lat="-26.489933348785627" lon="28.053511658779406">
    <ele>1508.68</ele>
   </trkpt>
   <trkpt lat="-26.48974" lon="28.052570000000003">
    <ele>1509.0</ele>
   </trkpt>
   <trkpt lat="-26.489640000991795" lon="28.05203999960903">
    <ele>1508.79</ele>
   </trkpt>
   <trkpt lat="-26.48954" lon="28.051510000000004">
    <ele>1508.7</ele>
   </trkpt>
   <trkpt lat="-26.48955" lon="28.05113">
    <ele>1508.4</ele>
   </trkpt>
   <trkpt lat="-26.489600000000003" lon="28.050960000000003">
    <ele>1508.22</ele>
   </trkpt>
   <trkpt lat="-26.489610000000003" lon="28.050950000000004">
    <ele>1508.22</ele>
   </trkpt>
   <trkpt lat="-26.48964" lon="28.050900000000002">
    <ele>1508.22</ele>
   </trkpt>
   <trkpt lat="-26.48976" lon="28.05083">
    <ele>1507.97</ele>
   </trkpt>
   <trkpt lat="-26.490439999963204" lon="28.050770000359247">
    <ele>1507.7</ele>
   </trkpt>
   <trkpt lat="-26.491120000000002" lon="28.050710000000002">
    <ele>1507.57</ele>
   </trkpt>
   <trkpt lat="-26.491390000000003" lon="28.050670000000004">
    <ele>1507.7500000000002</ele>
   </trkpt>
   <trkpt lat="-26.491780000000002" lon="28.050580000000004">
    <ele>1508.3200000000002</ele>
   </trkpt>
   <trkpt lat="-26.49218" lon="28.050400000000003">
    <ele>1508.65</ele>
   </trkpt>
   <trkpt lat="-26.49275666759337" lon="28.050040003597154">
    <ele>1509.3500000000001</ele>
   </trkpt>
   <trkpt lat="-26.49333333428368" lon="28.04968000358244">
    <ele>1510.3700000000001</ele>
   </trkpt>
   <trkpt lat="-26.493910000000003" lon="28.04932">
    <ele>1511.6000000000001</ele>
   </trkpt>
   <trkpt lat="-26.494220000000002" lon="28.049070000000004">
    <ele>1512.19</ele>
   </trkpt>
   <trkpt lat="-26.49452" lon="28.048730000000003">
    <ele>1512.9800000000002</ele>
   </trkpt>
   <trkpt lat="-26.494780000000002" lon="28.04858">
    <ele>1513.16</ele>
   </trkpt>
   <trkpt lat="-26.495420000000003" lon="28.047980000000003">
    <ele>1512.99</ele>
   </trkpt>
   <trkpt lat="-26.49566" lon="28.047710000000002">
    <ele>1513.0800000000002</ele>
   </trkpt>
   <trkpt lat="-26.495493027532913" lon="28.046772987754533">
    <ele>1514.2300000000002</ele>
   </trkpt>
   <trkpt lat="-26.495326048947483" lon="28.045835978231487">
    <ele>1517.6900000000003</ele>
   </trkpt>
   <trkpt lat="-26.495159064243776" lon="28.044898971430932">
    <ele>1522.8400000000001</ele>
   </trkpt>
   <trkpt lat="-26.49499207342185" lon="28.043961967352942">
    <ele>1526.24</ele>
   </trkpt>
   <trkpt lat="-26.494825076481767" lon="28.043024965997596">
    <ele>1526.3000000000002</ele>
   </trkpt>
   <trkpt lat="-26.494658073423594" lon="28.042087967364957">
    <ele>1525.71</ele>
   </trkpt>
   <trkpt lat="-26.494491064247395" lon="28.0411509714551">
    <ele>1526.2300000000002</ele>
   </trkpt>
   <trkpt lat="-26.49432404895322" lon="28.040213978268095">
    <ele>1528.0800000000002</ele>
   </trkpt>
   <trkpt lat="-26.49415702754115" lon="28.039276987804023">
    <ele>1532.46</ele>
   </trkpt>
   <trkpt lat="-26.493990000000004" lon="28.03834">
    <ele>1536.99</ele>
   </trkpt>
   <trkpt lat="-26.49369750580983" lon="28.037594994334544">
    <ele>1540.91</ele>
   </trkpt>
   <trkpt lat="-26.49340500775207" lon="28.036849992460517">
    <ele>1542.15</ele>
   </trkpt>
   <trkpt lat="-26.493112505826772" lon="28.036104994377897">
    <ele>1543.2100000000003</ele>
   </trkpt>
   <trkpt lat="-26.492820000000002" lon="28.03536">
    <ele>1544.73</ele>
   </trkpt>
   <trkpt lat="-26.49248600950761" lon="28.034533990398987">
    <ele>1547.94</ele>
   </trkpt>
   <trkpt lat="-26.49215201426101" lon="28.03370798559776">
    <ele>1551.32</ele>
   </trkpt>
   <trkpt lat="-26.49181801426031" lon="28.032881985596298">
    <ele>1554.4</ele>
   </trkpt>
   <trkpt lat="-26.491484009505598" lon="28.032055990394557">
    <ele>1556.28</ele>
   </trkpt>
   <trkpt lat="-26.49115" lon="28.03123">
    <ele>1559.15</ele>
   </trkpt>
   <trkpt lat="-26.491923334320884" lon="28.03085000512178">
    <ele>1559.3700000000001</ele>
   </trkpt>
   <trkpt lat="-26.49269666763561" lon="28.030470005131015">
    <ele>1558.78</ele>
   </trkpt>
   <trkpt lat="-26.493470000000002" lon="28.03009">
    <ele>1558.0800000000002</ele>
   </trkpt>
   <trkpt lat="-26.494216667644015" lon="28.029716671513828">
    <ele>1557.3500000000001</ele>
   </trkpt>
   <trkpt lat="-26.494963334316807" lon="28.029343338177508">
    <ele>1556.22</ele>
   </trkpt>
   <trkpt lat="-26.495710000000003" lon="28.02897">
    <ele>1555.73</ele>
   </trkpt>
   <trkpt lat="-26.49594" lon="28.02888">
    <ele>1555.3400000000001</ele>
   </trkpt>
   <trkpt lat="-26.496726670931274" lon="28.028488910305743">
    <ele>1554.14</ele>
   </trkpt>
   <trkpt lat="-26.49751334079664" lon="28.028097815257798">
    <ele>1553.16</ele>
   </trkpt>
   <trkpt lat="-26.498300009596058" lon="28.027706714855903">
    <ele>1551.5</ele>
   </trkpt>
   <trkpt lat="-26.499086677329466" lon="28.027315609099812">
    <ele>1549.74</ele>
   </trkpt>
   <trkpt lat="-26.49987334399682" lon="28.026924497989274">
    <ele>1547.3400000000001</ele>
   </trkpt>
   <trkpt lat="-26.500660009598075" lon="28.02653338152405">
    <ele>1545.22</ele>
   </trkpt>
   <trkpt lat="-26.50144667413316" lon="28.026142259703875">
    <ele>1542.79</ele>
   </trkpt>
   <trkpt lat="-26.502233337602046" lon="28.025751132528498">
    <ele>1541.0900000000001</ele>
   </trkpt>
   <trkpt lat="-26.503020000000003" lon="28.025360000000003">
    <ele>1539.7</ele>
   </trkpt>
   <trkpt lat="-26.5034462675211" lon="28.02620747798908">
    <ele>1539.0700000000002</ele>
   </trkpt>
   <trkpt lat="-26.50387253003615" lon="28.02705496226624">
    <ele>1538.3500000000001</ele>
   </trkpt>
   <trkpt lat="-26.504298787545018" lon="28.027902452831587">
    <ele>1537.6900000000003</ele>
   </trkpt>
   <trkpt lat="-26.504725040047564" lon="28.028749949685203">
    <ele>1537.14</ele>
   </trkpt>
   <trkpt lat="-26.505151287543672" lon="28.029597452827176">
    <ele>1536.78</ele>
   </trkpt>
   <trkpt lat="-26.505577530033204" lon="28.0304449622576">
    <ele>1536.71</ele>
   </trkpt>
   <trkpt lat="-26.506003767516034" lon="28.031292477976564">
    <ele>1535.53</ele>
   </trkpt>
   <trkpt lat="-26.50643" lon="28.032140000000002">
    <ele>1532.6000000000001</ele>
   </trkpt>
   <trkpt lat="-26.506800003996393" lon="28.032899995043227">
    <ele>1530.0200000000002</ele>
   </trkpt>
   <trkpt lat="-26.50717000396655" lon="28.033659994981864">
    <ele>1527.3000000000002</ele>
   </trkpt>
   <trkpt lat="-26.507540000000002" lon="28.03442">
    <ele>1525.7</ele>
   </trkpt>
   <trkpt lat="-26.50739" lon="28.034470000000002">
    <ele>1525.77</ele>
   </trkpt>
   <trkpt lat="-26.50669749998043" lon="28.034495000453024">
    <ele>1527.3000000000002</ele>
   </trkpt>
   <trkpt lat="-26.506004999956495" lon="28.03452000060465">
    <ele>1528.45</ele>
   </trkpt>
   <trkpt lat="-26.505312499928205" lon="28.034545000454894">
    <ele>1528.93</ele>
   </trkpt>
   <trkpt lat="-26.504620000000003" lon="28.034570000000002">
    <ele>1529.6100000000001</ele>
   </trkpt>
   <trkpt lat="-26.50376000002401" lon="28.03461400131745">
    <ele>1530.85</ele>
   </trkpt>
   <trkpt lat="-26.50290000003453" lon="28.03465800197622">
    <ele>1532.3300000000002</ele>
   </trkpt>
   <trkpt lat="-26.502040000031553" lon="28.03470200197633">
    <ele>1533.8500000000001</ele>
   </trkpt>
   <trkpt lat="-26.501180000015083" lon="28.03474600131784">
    <ele>1536.1200000000001</ele>
   </trkpt>
   <trkpt lat="-26.500320000000002" lon="28.03479">
    <ele>1537.43</ele>
   </trkpt>
   <trkpt lat="-26.50005" lon="28.034900000000004">
    <ele>1537.7200000000003</ele>
   </trkpt>
   <trkpt lat="-26.49929250451608" lon="28.03533001983588">
    <ele>1537.65</ele>
   </trkpt>
   <trkpt lat="-26.498535007743456" lon="28.03576003400288">
    <ele>1536.34</ele>
   </trkpt>
   <trkpt lat="-26.497777509682155" lon="28.036190042501268">
    <ele>1535.03</ele>
   </trkpt>
   <trkpt lat="-26.49702001033225" lon="28.036620045331297">
    <ele>1533.65</ele>
   </trkpt>
   <trkpt lat="-26.496262509693814" lon="28.03705004249322">
    <ele>1532.7</ele>
   </trkpt>
   <trkpt lat="-26.495505007766884" lon="28.037480033987286">
    <ele>1532.14</ele>
   </trkpt>
   <trkpt lat="-26.494747504551537" lon="28.037910019813747">
    <ele>1533.22</ele>
   </trkpt>
   <trkpt lat="-26.493990000000004" lon="28.03834">
    <ele>1536.99</ele>
   </trkpt>
   <trkpt lat="-26.494157027529926" lon="28.03927698774108">
    <ele>1532.46</ele>
   </trkpt>
   <trkpt lat="-26.494324048942" lon="28.04021397820516">
    <ele>1528.0800000000002</ele>
   </trkpt>
   <trkpt lat="-26.494491064236176" lon="28.041150971392156">
    <ele>1526.2300000000002</ele>
   </trkpt>
   <trkpt lat="-26.494658073412378" lon="28.042087967302013">
    <ele>1525.71</ele>
   </trkpt>
   <trkpt lat="-26.494825076470548" lon="28.043024965934652">
    <ele>1526.3000000000002</ele>
   </trkpt>
   <trkpt lat="-26.49499207341063" lon="28.04396196729">
    <ele>1526.24</ele>
   </trkpt>
   <trkpt lat="-26.495159064232563" lon="28.044898971367985">
    <ele>1522.8400000000001</ele>
   </trkpt>
   <trkpt lat="-26.49532604893627" lon="28.045835978168544">
    <ele>1517.6900000000003</ele>
   </trkpt>
   <trkpt lat="-26.4954930275217" lon="28.04677298769159">
    <ele>1514.2300000000002</ele>
   </trkpt>
   <trkpt lat="-26.49566" lon="28.047710000000002">
    <ele>1513.0800000000002</ele>
   </trkpt>
   <trkpt lat="-26.495420000000003" lon="28.047980000000003">
    <ele>1512.99</ele>
   </trkpt>
   <trkpt lat="-26.494780000000002" lon="28.04858">
    <ele>1513.16</ele>
   </trkpt>
   <trkpt lat="-26.49452" lon="28.048730000000003">
    <ele>1512.9800000000002</ele>
   </trkpt>
   <trkpt lat="-26.494220000000002" lon="28.049070000000004">
    <ele>1512.19</ele>
   </trkpt>
   <trkpt lat="-26.493910000000003" lon="28.04932">
    <ele>1511.6000000000001</ele>
   </trkpt>
   <trkpt lat="-26.493333334212775" lon="28.0496800036267">
    <ele>1510.3700000000001</ele>
   </trkpt>
   <trkpt lat="-26.492756667522464" lon="28.050040003641417">
    <ele>1509.3500000000001</ele>
   </trkpt>
   <trkpt lat="-26.49218" lon="28.050400000000003">
    <ele>1508.65</ele>
   </trkpt>
   <trkpt lat="-26.491780000000002" lon="28.050580000000004">
    <ele>1508.3200000000002</ele>
   </trkpt>
   <trkpt lat="-26.491390000000003" lon="28.050670000000004">
    <ele>1507.7500000000002</ele>
   </trkpt>
   <trkpt lat="-26.491120000000002" lon="28.050710000000002">
    <ele>1507.57</ele>
   </trkpt>
   <trkpt lat="-26.490440000061884" lon="28.050770000350532">
    <ele>1507.7</ele>
   </trkpt>
   <trkpt lat="-26.48976" lon="28.05083">
    <ele>1507.97</ele>
   </trkpt>
   <trkpt lat="-26.48965" lon="28.050890000000003">
    <ele>1508.13</ele>
   </trkpt>
   <trkpt lat="-26.48964" lon="28.050900000000002">
    <ele>1508.13</ele>
   </trkpt>
   <trkpt lat="-26.489610000000003" lon="28.050960000000003">
    <ele>1508.13</ele>
   </trkpt>
   <trkpt lat="-26.48955" lon="28.05113">
    <ele>1508.4</ele>
   </trkpt>
   <trkpt lat="-26.48954" lon="28.051510000000004">
    <ele>1508.7</ele>
   </trkpt>
   <trkpt lat="-26.489640000965373" lon="28.052039999469">
    <ele>1508.79</ele>
   </trkpt>
   <trkpt lat="-26.48974" lon="28.052570000000003">
    <ele>1509.0</ele>
   </trkpt>
   <trkpt lat="-26.489933348778088" lon="28.05351165874265">
    <ele>1508.68</ele>
   </trkpt>
   <trkpt lat="-26.49012669137787" lon="28.054453320652538">
    <ele>1507.17</ele>
   </trkpt>
   <trkpt lat="-26.49032002779927" lon="28.05539498572961">
    <ele>1505.6100000000001</ele>
   </trkpt>
   <trkpt lat="-26.49051335804222" lon="28.05633665397379">
    <ele>1500.6200000000001</ele>
   </trkpt>
   <trkpt lat="-26.49070668210664" lon="28.057278325385024">
    <ele>1498.4</ele>
   </trkpt>
   <trkpt lat="-26.490900000000003" lon="28.058220000000002">
    <ele>1496.38</ele>
   </trkpt>
   <trkpt lat="-26.490424999976465" lon="28.05843500097186">
    <ele>1495.6100000000001</ele>
   </trkpt>
   <trkpt lat="-26.489950000000004" lon="28.058650000000004">
    <ele>1495.3500000000001</ele>
   </trkpt>
   <trkpt lat="-26.48985" lon="28.058740000000004">
    <ele>1495.3500000000001</ele>
   </trkpt>
   <trkpt lat="-26.489810000000002" lon="28.05889">
    <ele>1494.8400000000001</ele>
   </trkpt>
   <trkpt lat="-26.489790000000003" lon="28.0591">
    <ele>1494.8400000000001</ele>
   </trkpt>
   <trkpt lat="-26.489690000000003" lon="28.059130000000003">
    <ele>1494.63</ele>
   </trkpt>
   <trkpt lat="-26.48945" lon="28.05909">
    <ele>1493.7</ele>
   </trkpt>
   <trkpt lat="-26.488722500687377" lon="28.059347504889892">
    <ele>1492.49</ele>
   </trkpt>
   <trkpt lat="-26.48799500091277" lon="28.05960500652108">
    <ele>1491.78</ele>
   </trkpt>
   <trkpt lat="-26.487267500676186" lon="28.0598625048937">
    <ele>1491.3700000000001</ele>
   </trkpt>
   <trkpt lat="-26.48654" lon="28.06012">
    <ele>1491.0100000000002</ele>
   </trkpt>
   <trkpt lat="-26.486520000000002" lon="28.060560000000002">
    <ele>1491.1000000000001</ele>
   </trkpt>
   <trkpt lat="-26.48656" lon="28.061230000000002">
    <ele>1491.6</ele>
   </trkpt>
  </trkseg>
 </trk>
</gpx>
