<?xml version="1.0" encoding="UTF-8"?>
<gpx creator="StravaGPX" version="1.1" xmlns="http://www.topografix.com/GPX/1/1" xmlns:xsi="http://www.w3.org/2001/XMLSchema-instance" xsi:schemaLocation="http://www.topografix.com/GPX/1/1 http://www.topografix.com/GPX/1/1/gpx.xsd">
 <metadata>
  <name>Madmac 22km</name>
  <author>
   <name>Racepass Strava</name>
   <link href="https://www.strava.com/athletes/103770724"/>
  </author>
  <copyright author="OpenStreetMap contributors">
   <year>2020</year>
   <license>https://www.openstreetmap.org/copyright</license>
  </copyright>
  <link href="https://www.strava.com/routes/3487799342087866944"/>
 </metadata>
 <trk>
  <name>Madmac 22km</name>
  <link href="https://www.strava.com/routes/3487799342087866944"/>
  <type>running</type>
  <trkseg>
   <trkpt lat="-26.487720000000003" lon="28.06276">
    <ele>1493.3</ele>
   </trkpt>
   <trkpt lat="-26.48853" lon="28.062420000000003">
    <ele>1493.6</ele>
   </trkpt>
   <trkpt lat="-26.48863" lon="28.062340000000003">
    <ele>1493.6</ele>
   </trkpt>
   <trkpt lat="-26.489265000207745" lon="28.062065001542987">
    <ele>1493.7600000000002</ele>
   </trkpt>
   <trkpt lat="-26.489900000000002" lon="28.061790000000002">
    <ele>1494.4400000000003</ele>
   </trkpt>
   <trkpt lat="-26.489863338934644" lon="28.060893332744783">
    <ele>1494.0600000000002</ele>
   </trkpt>
   <trkpt lat="-26.48982667226729" lon="28.059996666061473">
    <ele>1494.38</ele>
   </trkpt>
   <trkpt lat="-26.489790000000003" lon="28.0591">
    <ele>1494.8400000000001</ele>
   </trkpt>
   <trkpt lat="-26.489810000000002" lon="28.05889">
    <ele>1494.8400000000001</ele>
   </trkpt>
   <trkpt lat="-26.48985" lon="28.058740000000004">
    <ele>1495.3500000000001</ele>
   </trkpt>
   <trkpt lat="-26.489950000000004" lon="28.058650000000004">
    <ele>1495.3500000000001</ele>
   </trkpt>
   <trkpt lat="-26.490425000345624" lon="28.058435000804767">
    <ele>1495.6100000000001</ele>
   </trkpt>
   <trkpt lat="-26.490900000000003" lon="28.058220000000002">
    <ele>1496.38</ele>
   </trkpt>
   <trkpt lat="-26.49070668211418" lon="28.057278325421784">
    <ele>1498.4</ele>
   </trkpt>
   <trkpt lat="-26.490513358049757" lon="28.056336654010547">
    <ele>1500.6200000000001</ele>
   </trkpt>
   <trkpt lat="-26.49032002780681" lon="28.055394985766366">
    <ele>1505.6100000000001</ele>
   </trkpt>
   <trkpt lat="-26.490126691385413" lon="28.054453320689294">
    <ele>1507.17</ele>
   </trkpt>
   <trkpt lat="-26.489933348785627" lon="28.053511658779406">
    <ele>1508.68</ele>
   </trkpt>
   <trkpt lat="-26.48974" lon="28.052570000000003">
    <ele>1509.0</ele>
   </trkpt>
   <trkpt lat="-26.489640000991795" lon="28.05203999960903">
    <ele>1508.79</ele>
   </trkpt>
   <trkpt lat="-26.48954" lon="28.051510000000004">
    <ele>1508.7</ele>
   </trkpt>
   <trkpt lat="-26.48955" lon="28.05113">
    <ele>1508.4</ele>
   </trkpt>
   <trkpt lat="-26.489600000000003" lon="28.050960000000003">
    <ele>1508.22</ele>
   </trkpt>
   <trkpt lat="-26.489610000000003" lon="28.050950000000004">
    <ele>1508.22</ele>
   </trkpt>
   <trkpt lat="-26.48964" lon="28.050900000000002">
    <ele>1508.22</ele>
   </trkpt>
   <trkpt lat="-26.48976" lon="28.05083">
    <ele>1507.97</ele>
   </trkpt>
   <trkpt lat="-26.490439999963204" lon="28.050770000359247">
    <ele>1507.7</ele>
   </trkpt>
   <trkpt lat="-26.491120000000002" lon="28.050710000000002">
    <ele>1507.57</ele>
   </trkpt>
   <trkpt lat="-26.491390000000003" lon="28.050670000000004">
    <ele>1507.7500000000002</ele>
   </trkpt>
   <trkpt lat="-26.491780000000002" lon="28.050580000000004">
    <ele>1508.3200000000002</ele>
   </trkpt>
   <trkpt lat="-26.49218" lon="28.050400000000003">
    <ele>1508.65</ele>
   </trkpt>
   <trkpt lat="-26.49275666759337" lon="28.050040003597154">
    <ele>1509.3500000000001</ele>
   </trkpt>
   <trkpt lat="-26.49333333428368" lon="28.04968000358244">
    <ele>1510.3700000000001</ele>
   </trkpt>
   <trkpt lat="-26.493910000000003" lon="28.04932">
    <ele>1511.6000000000001</ele>
   </trkpt>
   <trkpt lat="-26.494220000000002" lon="28.049070000000004">
    <ele>1512.19</ele>
   </trkpt>
   <trkpt lat="-26.49452" lon="28.048730000000003">
    <ele>1512.9800000000002</ele>
   </trkpt>
   <trkpt lat="-26.494780000000002" lon="28.04858">
    <ele>1513.16</ele>
   </trkpt>
   <trkpt lat="-26.495420000000003" lon="28.047980000000003">
    <ele>1512.99</ele>
   </trkpt>
   <trkpt lat="-26.49566" lon="28.047710000000002">
    <ele>1513.0800000000002</ele>
   </trkpt>
   <trkpt lat="-26.495493027532913" lon="28.046772987754533">
    <ele>1514.2300000000002</ele>
   </trkpt>
   <trkpt lat="-26.495326048947483" lon="28.045835978231487">
    <ele>1517.6900000000003</ele>
   </trkpt>
   <trkpt lat="-26.495159064243776" lon="28.044898971430932">
    <ele>1522.8400000000001</ele>
   </trkpt>
   <trkpt lat="-26.49499207342185" lon="28.043961967352942">
    <ele>1526.24</ele>
   </trkpt>
   <trkpt lat="-26.494825076481767" lon="28.043024965997596">
    <ele>1526.3000000000002</ele>
   </trkpt>
   <trkpt lat="-26.494658073423594" lon="28.042087967364957">
    <ele>1525.71</ele>
   </trkpt>
   <trkpt lat="-26.494491064247395" lon="28.0411509714551">
    <ele>1526.2300000000002</ele>
   </trkpt>
   <trkpt lat="-26.49432404895322" lon="28.040213978268095">
    <ele>1528.0800000000002</ele>
   </trkpt>
   <trkpt lat="-26.49415702754115" lon="28.039276987804023">
    <ele>1532.46</ele>
   </trkpt>
   <trkpt lat="-26.493990000000004" lon="28.03834">
    <ele>1536.99</ele>
   </trkpt>
   <trkpt lat="-26.49369750580983" lon="28.037594994334544">
    <ele>1540.91</ele>
   </trkpt>
   <trkpt lat="-26.49340500775207" lon="28.036849992460517">
    <ele>1542.15</ele>
   </trkpt>
   <trkpt lat="-26.493112505826772" lon="28.036104994377897">
    <ele>1543.2100000000003</ele>
   </trkpt>
   <trkpt lat="-26.492820000000002" lon="28.03536">
    <ele>1544.73</ele>
   </trkpt>
   <trkpt lat="-26.49248600950761" lon="28.034533990398987">
    <ele>1547.94</ele>
   </trkpt>
   <trkpt lat="-26.49215201426101" lon="28.03370798559776">
    <ele>1551.32</ele>
   </trkpt>
   <trkpt lat="-26.49181801426031" lon="28.032881985596298">
    <ele>1554.4</ele>
   </trkpt>
   <trkpt lat="-26.491484009505598" lon="28.032055990394557">
    <ele>1556.28</ele>
   </trkpt>
   <trkpt lat="-26.49115" lon="28.03123">
    <ele>1559.15</ele>
   </trkpt>
   <trkpt lat="-26.491923334320884" lon="28.03085000512178">
    <ele>1559.3700000000001</ele>
   </trkpt>
   <trkpt lat="-26.49269666763561" lon="28.030470005131015">
    <ele>1558.78</ele>
   </trkpt>
   <trkpt lat="-26.493470000000002" lon="28.03009">
    <ele>1558.0800000000002</ele>
   </trkpt>
   <trkpt lat="-26.494216667644015" lon="28.029716671513828">
    <ele>1557.3500000000001</ele>
   </trkpt>
   <trkpt lat="-26.494963334316807" lon="28.029343338177508">
    <ele>1556.22</ele>
   </trkpt>
   <trkpt lat="-26.495710000000003" lon="28.02897">
    <ele>1555.73</ele>
   </trkpt>
   <trkpt lat="-26.49594" lon="28.02888">
    <ele>1555.3400000000001</ele>
   </trkpt>
   <trkpt lat="-26.496726670931274" lon="28.028488910305743">
    <ele>1554.14</ele>
   </trkpt>
   <trkpt lat="-26.49751334079664" lon="28.028097815257798">
    <ele>1553.16</ele>
   </trkpt>
   <trkpt lat="-26.498300009596058" lon="28.027706714855903">
    <ele>1551.5</ele>
   </trkpt>
   <trkpt lat="-26.499086677329466" lon="28.027315609099812">
    <ele>1549.74</ele>
   </trkpt>
   <trkpt lat="-26.49987334399682" lon="28.026924497989274">
    <ele>1547.3400000000001</ele>
   </trkpt>
   <trkpt lat="-26.500660009598075" lon="28.02653338152405">
    <ele>1545.22</ele>
   </trkpt>
   <trkpt lat="-26.50144667413316" lon="28.026142259703875">
    <ele>1542.79</ele>
   </trkpt>
   <trkpt lat="-26.502233337602046" lon="28.025751132528498">
    <ele>1541.0900000000001</ele>
   </trkpt>
   <trkpt lat="-26.503020000000003" lon="28.025360000000003">
    <ele>1539.7</ele>
   </trkpt>
   <trkpt lat="-26.502580012496484" lon="28.024513317134296">
    <ele>1540.89</ele>
   </trkpt>
   <trkpt lat="-26.502140019996492" lon="28.023666640752758">
    <ele>1542.17</ele>
   </trkpt>
   <trkpt lat="-26.50170002250016" lon="28.022819970855295">
    <ele>1543.74</ele>
   </trkpt>
   <trkpt lat="-26.501260020007624" lon="28.0219733074418">
    <ele>1546.4</ele>
   </trkpt>
   <trkpt lat="-26.500820012519014" lon="28.021126650512173">
    <ele>1548.52</ele>
   </trkpt>
   <trkpt lat="-26.500380000000003" lon="28.020280000000003">
    <ele>1549.3500000000001</ele>
   </trkpt>
   <trkpt lat="-26.500921798119634" lon="28.019505940753213">
    <ele>1549.13</ele>
   </trkpt>
   <trkpt lat="-26.501463592063278" lon="28.018731874207255">
    <ele>1548.8300000000002</ele>
   </trkpt>
   <trkpt lat="-26.50200538183079" lon="28.01795780036195">
    <ele>1547.95</ele>
   </trkpt>
   <trkpt lat="-26.502547167422055" lon="28.017183719217105">
    <ele>1547.3300000000002</ele>
   </trkpt>
   <trkpt lat="-26.50308894883691" lon="28.01640963077254">
    <ele>1546.66</ele>
   </trkpt>
   <trkpt lat="-26.503630726075233" lon="28.015635535028064">
    <ele>1545.1800000000003</ele>
   </trkpt>
   <trkpt lat="-26.504172499136867" lon="28.014861431983505">
    <ele>1543.66</ele>
   </trkpt>
   <trkpt lat="-26.504714268021697" lon="28.014087321638662">
    <ele>1540.69</ele>
   </trkpt>
   <trkpt lat="-26.50525603272956" lon="28.01331320399336">
    <ele>1539.0900000000001</ele>
   </trkpt>
   <trkpt lat="-26.505797793260342" lon="28.012539079047407">
    <ele>1537.0400000000002</ele>
   </trkpt>
   <trkpt lat="-26.50633954961389" lon="28.01176494680062">
    <ele>1534.39</ele>
   </trkpt>
   <trkpt lat="-26.50688130179007" lon="28.010990807252814">
    <ele>1532.64</ele>
   </trkpt>
   <trkpt lat="-26.507423049788745" lon="28.010216660403803">
    <ele>1533.7200000000003</ele>
   </trkpt>
   <trkpt lat="-26.50796479360977" lon="28.009442506253404">
    <ele>1536.2300000000002</ele>
   </trkpt>
   <trkpt lat="-26.508506533253012" lon="28.00866834480143">
    <ele>1536.8799999999999</ele>
   </trkpt>
   <trkpt lat="-26.509048268718335" lon="28.00789417604769">
    <ele>1536.21</ele>
   </trkpt>
   <trkpt lat="-26.509590000000003" lon="28.007120000000004">
    <ele>1533.95</ele>
   </trkpt>
   <trkpt lat="-26.508943338633948" lon="28.006568317803286">
    <ele>1536.19</ele>
   </trkpt>
   <trkpt lat="-26.50829667514625" lon="28.00601664181779">
    <ele>1538.44</ele>
   </trkpt>
   <trkpt lat="-26.50765000953701" lon="28.005464972043306">
    <ele>1541.9900000000002</ele>
   </trkpt>
   <trkpt lat="-26.50700334180629" lon="28.004913308479594">
    <ele>1544.17</ele>
   </trkpt>
   <trkpt lat="-26.506356671954194" lon="28.004361651126434">
    <ele>1546.41</ele>
   </trkpt>
   <trkpt lat="-26.50571" lon="28.00381">
    <ele>1548.18</ele>
   </trkpt>
   <trkpt lat="-26.505012508967162" lon="28.003203724238617">
    <ele>1550.5600000000002</ele>
   </trkpt>
   <trkpt lat="-26.504315015372264" lon="28.002597455838377">
    <ele>1552.66</ele>
   </trkpt>
   <trkpt lat="-26.503617519215414" lon="28.001991194799004">
    <ele>1554.27</ele>
   </trkpt>
   <trkpt lat="-26.502920020496735" lon="28.00138494112021">
    <ele>1556.65</ele>
   </trkpt>
   <trkpt lat="-26.502222519216325" lon="28.00077869480171">
    <ele>1560.24</ele>
   </trkpt>
   <trkpt lat="-26.501525015374302" lon="28.000172455843213">
    <ele>1563.8500000000001</ele>
   </trkpt>
   <trkpt lat="-26.500827508970772" lon="27.99956622424443">
    <ele>1568.75</ele>
   </trkpt>
   <trkpt lat="-26.500130000000002" lon="27.998960000000004">
    <ele>1576.0600000000002</ele>
   </trkpt>
   <trkpt lat="-26.500120000000003" lon="27.998920000000002">
    <ele>1576.2200000000003</ele>
   </trkpt>
   <trkpt lat="-26.500120000000003" lon="27.998870000000004">
    <ele>1576.3100000000002</ele>
   </trkpt>
   <trkpt lat="-26.500130000000002" lon="27.99884">
    <ele>1576.3100000000002</ele>
   </trkpt>
   <trkpt lat="-26.500180000000004" lon="27.998720000000002">
    <ele>1576.3500000000001</ele>
   </trkpt>
   <trkpt lat="-26.500658581179806" lon="27.998037159918365">
    <ele>1573.15</ele>
   </trkpt>
   <trkpt lat="-26.50113715910989" lon="27.997354314149096">
    <ele>1568.39</ele>
   </trkpt>
   <trkpt lat="-26.501615733790167" lon="27.99667146269208">
    <ele>1561.1800000000003</ele>
   </trkpt>
   <trkpt lat="-26.50209430522054" lon="27.995988605547176">
    <ele>1555.0600000000002</ele>
   </trkpt>
   <trkpt lat="-26.502572873400915" lon="27.995305742714265">
    <ele>1550.96</ele>
   </trkpt>
   <trkpt lat="-26.503051438331198" lon="27.99462287419322">
    <ele>1547.49</ele>
   </trkpt>
   <trkpt lat="-26.50353" lon="27.993940000000002">
    <ele>1543.97</ele>
   </trkpt>
   <trkpt lat="-26.50406848594199" lon="27.993176196803446">
    <ele>1541.46</ele>
   </trkpt>
   <trkpt lat="-26.504606967817594" lon="27.992412386447484">
    <ele>1540.5900000000001</ele>
   </trkpt>
   <trkpt lat="-26.505145445626653" lon="27.99164856893193">
    <ele>1540.19</ele>
   </trkpt>
   <trkpt lat="-26.50568391936906" lon="27.990884744256608">
    <ele>1539.74</ele>
   </trkpt>
   <trkpt lat="-26.50622238904467" lon="27.990120912421332">
    <ele>1539.0</ele>
   </trkpt>
   <trkpt lat="-26.50676085465335" lon="27.989357073425925">
    <ele>1539.3600000000001</ele>
   </trkpt>
   <trkpt lat="-26.507299316194967" lon="27.988593227270197">
    <ele>1540.58</ele>
   </trkpt>
   <trkpt lat="-26.50783777366939" lon="27.98782937395398">
    <ele>1540.97</ele>
   </trkpt>
   <trkpt lat="-26.508376227076482" lon="27.987065513477077">
    <ele>1539.71</ele>
   </trkpt>
   <trkpt lat="-26.508914676416104" lon="27.986301645839323">
    <ele>1538.93</ele>
   </trkpt>
   <trkpt lat="-26.50945312168813" lon="27.985537771040523">
    <ele>1538.04</ele>
   </trkpt>
   <trkpt lat="-26.509991562892427" lon="27.9847738890805">
    <ele>1535.65</ele>
   </trkpt>
   <trkpt lat="-26.510530000000003" lon="27.98401">
    <ele>1530.8100000000002</ele>
   </trkpt>
   <trkpt lat="-26.511210730022345" lon="27.984599240309528">
    <ele>1527.74</ele>
   </trkpt>
   <trkpt lat="-26.511891457624138" lon="27.9851884876034">
    <ele>1525.3700000000001</ele>
   </trkpt>
   <trkpt lat="-26.512572182805282" lon="27.985777741881876">
    <ele>1521.2800000000002</ele>
   </trkpt>
   <trkpt lat="-26.513252905565672" lon="27.986367003145226">
    <ele>1519.12</ele>
   </trkpt>
   <trkpt lat="-26.513933625905207" lon="27.986956271393716">
    <ele>1516.4</ele>
   </trkpt>
   <trkpt lat="-26.514614343823787" lon="27.987545546627615">
    <ele>1515.23</ele>
   </trkpt>
   <trkpt lat="-26.51529505932132" lon="27.98813482884718">
    <ele>1513.89</ele>
   </trkpt>
   <trkpt lat="-26.5159757723977" lon="27.988724118052687">
    <ele>1512.8700000000001</ele>
   </trkpt>
   <trkpt lat="-26.516656483052827" lon="27.989313414244393">
    <ele>1511.8</ele>
   </trkpt>
   <trkpt lat="-26.51733719128659" lon="27.98990271742257">
    <ele>1510.82</ele>
   </trkpt>
   <trkpt lat="-26.518017897098904" lon="27.990492027587482">
    <ele>1509.7900000000002</ele>
   </trkpt>
   <trkpt lat="-26.51869860048966" lon="27.991081344739392">
    <ele>1508.25</ele>
   </trkpt>
   <trkpt lat="-26.519379301458756" lon="27.991670668878566">
    <ele>1506.66</ele>
   </trkpt>
   <trkpt lat="-26.52006" lon="27.99226">
    <ele>1505.46</ele>
   </trkpt>
   <trkpt lat="-26.519508985755355" lon="27.993042172817713">
    <ele>1506.85</ele>
   </trkpt>
   <trkpt lat="-26.51895796724472" lon="27.99382433812821">
    <ele>1508.2700000000002</ele>
   </trkpt>
   <trkpt lat="-26.51840694446823" lon="27.994606495931677">
    <ele>1509.89</ele>
   </trkpt>
   <trkpt lat="-26.517855917426044" lon="27.995388646228324">
    <ele>1510.49</ele>
   </trkpt>
   <trkpt lat="-26.517304886118293" lon="27.99617078901833">
    <ele>1511.2</ele>
   </trkpt>
   <trkpt lat="-26.516753850545125" lon="27.996952924301898">
    <ele>1511.8200000000002</ele>
   </trkpt>
   <trkpt lat="-26.516202810706687" lon="27.99773505207923">
    <ele>1512.7</ele>
   </trkpt>
   <trkpt lat="-26.515651766603117" lon="27.998517172350503">
    <ele>1513.5700000000002</ele>
   </trkpt>
   <trkpt lat="-26.515100718234564" lon="27.999299285115924">
    <ele>1514.22</ele>
   </trkpt>
   <trkpt lat="-26.514549665601162" lon="28.00008139037569">
    <ele>1515.26</ele>
   </trkpt>
   <trkpt lat="-26.513998608703066" lon="28.000863488129987">
    <ele>1516.7100000000003</ele>
   </trkpt>
   <trkpt lat="-26.51344754754042" lon="28.00164557837901">
    <ele>1517.5500000000002</ele>
   </trkpt>
   <trkpt lat="-26.512896482113355" lon="28.00242766112296">
    <ele>1519.4900000000002</ele>
   </trkpt>
   <trkpt lat="-26.512345412422025" lon="28.00320973636203">
    <ele>1520.92</ele>
   </trkpt>
   <trkpt lat="-26.511794338466565" lon="28.00399180409641">
    <ele>1522.93</ele>
   </trkpt>
   <trkpt lat="-26.511243260247134" lon="28.0047738643263">
    <ele>1524.8100000000002</ele>
   </trkpt>
   <trkpt lat="-26.51069217776386" lon="28.00555591705189">
    <ele>1527.92</ele>
   </trkpt>
   <trkpt lat="-26.510141091016894" lon="28.00633796227338">
    <ele>1531.0700000000002</ele>
   </trkpt>
   <trkpt lat="-26.509590000000003" lon="28.007120000000004">
    <ele>1533.95</ele>
   </trkpt>
   <trkpt lat="-26.509048268712743" lon="28.007894176055686">
    <ele>1536.21</ele>
   </trkpt>
   <trkpt lat="-26.508506533247417" lon="28.00866834480942">
    <ele>1536.8799999999999</ele>
   </trkpt>
   <trkpt lat="-26.50796479360417" lon="28.009442506261394">
    <ele>1535.9900000000002</ele>
   </trkpt>
   <trkpt lat="-26.507423049783146" lon="28.0102166604118">
    <ele>1533.5400000000002</ele>
   </trkpt>
   <trkpt lat="-26.506881301784475" lon="28.010990807260807">
    <ele>1532.64</ele>
   </trkpt>
   <trkpt lat="-26.506339549608295" lon="28.01176494680861">
    <ele>1534.39</ele>
   </trkpt>
   <trkpt lat="-26.505797793254743" lon="28.0125390790554">
    <ele>1537.0400000000002</ele>
   </trkpt>
   <trkpt lat="-26.50525603272397" lon="28.013313204001353">
    <ele>1539.0900000000001</ele>
   </trkpt>
   <trkpt lat="-26.504714268016095" lon="28.014087321646652">
    <ele>1540.69</ele>
   </trkpt>
   <trkpt lat="-26.50417249913127" lon="28.0148614319915">
    <ele>1543.66</ele>
   </trkpt>
   <trkpt lat="-26.50363072606963" lon="28.01563553503606">
    <ele>1545.1800000000003</ele>
   </trkpt>
   <trkpt lat="-26.503088948831312" lon="28.01640963078053">
    <ele>1546.66</ele>
   </trkpt>
   <trkpt lat="-26.50254716741646" lon="28.017183719225095">
    <ele>1547.39</ele>
   </trkpt>
   <trkpt lat="-26.502005381825203" lon="28.01795780036994">
    <ele>1548.13</ele>
   </trkpt>
   <trkpt lat="-26.501463592057682" lon="28.018731874215245">
    <ele>1548.8300000000002</ele>
   </trkpt>
   <trkpt lat="-26.500921798114035" lon="28.019505940761206">
    <ele>1549.13</ele>
   </trkpt>
   <trkpt lat="-26.500380000000003" lon="28.020280000000003">
    <ele>1549.3500000000001</ele>
   </trkpt>
   <trkpt lat="-26.50082001248455" lon="28.02112665044586">
    <ele>1548.52</ele>
   </trkpt>
   <trkpt lat="-26.50126001997316" lon="28.021973307375486">
    <ele>1546.4</ele>
   </trkpt>
   <trkpt lat="-26.501700022465695" lon="28.02281997078898">
    <ele>1543.74</ele>
   </trkpt>
   <trkpt lat="-26.502140019962027" lon="28.023666640686447">
    <ele>1542.17</ele>
   </trkpt>
   <trkpt lat="-26.50258001246202" lon="28.02451331706798">
    <ele>1540.89</ele>
   </trkpt>
   <trkpt lat="-26.503020000000003" lon="28.025360000000003">
    <ele>1539.5200000000002</ele>
   </trkpt>
   <trkpt lat="-26.5034462675211" lon="28.02620747798908">
    <ele>1539.0700000000002</ele>
   </trkpt>
   <trkpt lat="-26.50387253003615" lon="28.02705496226624">
    <ele>1538.3500000000001</ele>
   </trkpt>
   <trkpt lat="-26.504298787545018" lon="28.027902452831587">
    <ele>1537.6900000000003</ele>
   </trkpt>
   <trkpt lat="-26.504725040047564" lon="28.028749949685203">
    <ele>1537.14</ele>
   </trkpt>
   <trkpt lat="-26.505151287543672" lon="28.029597452827176">
    <ele>1536.78</ele>
   </trkpt>
   <trkpt lat="-26.505577530033204" lon="28.0304449622576">
    <ele>1536.71</ele>
   </trkpt>
   <trkpt lat="-26.506003767516034" lon="28.031292477976564">
    <ele>1535.53</ele>
   </trkpt>
   <trkpt lat="-26.50643" lon="28.032140000000002">
    <ele>1532.6000000000001</ele>
   </trkpt>
   <trkpt lat="-26.506800003996393" lon="28.032899995043227">
    <ele>1530.0200000000002</ele>
   </trkpt>
   <trkpt lat="-26.50717000396655" lon="28.033659994981864">
    <ele>1527.3000000000002</ele>
   </trkpt>
   <trkpt lat="-26.507540000000002" lon="28.03442">
    <ele>1525.7</ele>
   </trkpt>
   <trkpt lat="-26.50739" lon="28.034470000000002">
    <ele>1525.77</ele>
   </trkpt>
   <trkpt lat="-26.50669749998043" lon="28.034495000453024">
    <ele>1527.3000000000002</ele>
   </trkpt>
   <trkpt lat="-26.506004999956495" lon="28.03452000060465">
    <ele>1528.45</ele>
   </trkpt>
   <trkpt lat="-26.505312499928205" lon="28.034545000454894">
    <ele>1528.93</ele>
   </trkpt>
   <trkpt lat="-26.504620000000003" lon="28.034570000000002">
    <ele>1529.6100000000001</ele>
   </trkpt>
   <trkpt lat="-26.50376000002401" lon="28.03461400131745">
    <ele>1530.85</ele>
   </trkpt>
   <trkpt lat="-26.50290000003453" lon="28.03465800197622">
    <ele>1532.3300000000002</ele>
   </trkpt>
   <trkpt lat="-26.502040000031553" lon="28.03470200197633">
    <ele>1533.8500000000001</ele>
   </trkpt>
   <trkpt lat="-26.501180000015083" lon="28.03474600131784">
    <ele>1536.1200000000001</ele>
   </trkpt>
   <trkpt lat="-26.500320000000002" lon="28.03479">
    <ele>1537.43</ele>
   </trkpt>
   <trkpt lat="-26.50005" lon="28.034900000000004">
    <ele>1537.7200000000003</ele>
   </trkpt>
   <trkpt lat="-26.49929250451608" lon="28.03533001983588">
    <ele>1537.65</ele>
   </trkpt>
   <trkpt lat="-26.498535007743456" lon="28.03576003400288">
    <ele>1536.34</ele>
   </trkpt>
   <trkpt lat="-26.497777509682155" lon="28.036190042501268">
    <ele>1535.03</ele>
   </trkpt>
   <trkpt lat="-26.49702001033225" lon="28.036620045331297">
    <ele>1533.65</ele>
   </trkpt>
   <trkpt lat="-26.496262509693814" lon="28.03705004249322">
    <ele>1532.7</ele>
   </trkpt>
   <trkpt lat="-26.495505007766884" lon="28.037480033987286">
    <ele>1532.14</ele>
   </trkpt>
   <trkpt lat="-26.494747504551537" lon="28.037910019813747">
    <ele>1533.22</ele>
   </trkpt>
   <trkpt lat="-26.493990000000004" lon="28.03834">
    <ele>1536.99</ele>
   </trkpt>
   <trkpt lat="-26.494157027529926" lon="28.03927698774108">
    <ele>1532.46</ele>
   </trkpt>
   <trkpt lat="-26.494324048942" lon="28.04021397820516">
    <ele>1528.0800000000002</ele>
   </trkpt>
   <trkpt lat="-26.494491064236176" lon="28.041150971392156">
    <ele>1526.2300000000002</ele>
   </trkpt>
   <trkpt lat="-26.494658073412378" lon="28.042087967302013">
    <ele>1525.71</ele>
   </trkpt>
   <trkpt lat="-26.494825076470548" lon="28.043024965934652">
    <ele>1526.3000000000002</ele>
   </trkpt>
   <trkpt lat="-26.49499207341063" lon="28.04396196729">
    <ele>1526.24</ele>
   </trkpt>
   <trkpt lat="-26.495159064232563" lon="28.044898971367985">
    <ele>1522.8400000000001</ele>
   </trkpt>
   <trkpt lat="-26.49532604893627" lon="28.045835978168544">
    <ele>1517.6900000000003</ele>
   </trkpt>
   <trkpt lat="-26.4954930275217" lon="28.04677298769159">
    <ele>1514.2300000000002</ele>
   </trkpt>
   <trkpt lat="-26.49566" lon="28.047710000000002">
    <ele>1513.0800000000002</ele>
   </trkpt>
   <trkpt lat="-26.495420000000003" lon="28.047980000000003">
    <ele>1512.99</ele>
   </trkpt>
   <trkpt lat="-26.494780000000002" lon="28.04858">
    <ele>1513.16</ele>
   </trkpt>
   <trkpt lat="-26.49452" lon="28.048730000000003">
    <ele>1512.9800000000002</ele>
   </trkpt>
   <trkpt lat="-26.494220000000002" lon="28.049070000000004">
    <ele>1512.19</ele>
   </trkpt>
   <trkpt lat="-26.493910000000003" lon="28.04932">
    <ele>1511.6000000000001</ele>
   </trkpt>
   <trkpt lat="-26.493333334212775" lon="28.0496800036267">
    <ele>1510.3700000000001</ele>
   </trkpt>
   <trkpt lat="-26.492756667522464" lon="28.050040003641417">
    <ele>1509.3500000000001</ele>
   </trkpt>
   <trkpt lat="-26.49218" lon="28.050400000000003">
    <ele>1508.65</ele>
   </trkpt>
   <trkpt lat="-26.491780000000002" lon="28.050580000000004">
    <ele>1508.3200000000002</ele>
   </trkpt>
   <trkpt lat="-26.491390000000003" lon="28.050670000000004">
    <ele>1507.7500000000002</ele>
   </trkpt>
   <trkpt lat="-26.491120000000002" lon="28.050710000000002">
    <ele>1507.57</ele>
   </trkpt>
   <trkpt lat="-26.490440000061884" lon="28.050770000350532">
    <ele>1507.7</ele>
   </trkpt>
   <trkpt lat="-26.48976" lon="28.05083">
    <ele>1507.97</ele>
   </trkpt>
   <trkpt lat="-26.48964" lon="28.050900000000002">
    <ele>1508.25</ele>
   </trkpt>
   <trkpt lat="-26.489610000000003" lon="28.050960000000003">
    <ele>1508.25</ele>
   </trkpt>
   <trkpt lat="-26.48955" lon="28.05113">
    <ele>1508.4</ele>
   </trkpt>
   <trkpt lat="-26.48954" lon="28.051510000000004">
    <ele>1508.7</ele>
   </trkpt>
   <trkpt lat="-26.489640000965373" lon="28.052039999469">
    <ele>1508.79</ele>
   </trkpt>
   <trkpt lat="-26.48974" lon="28.052570000000003">
    <ele>1509.0</ele>
   </trkpt>
   <trkpt lat="-26.489933348778088" lon="28.05351165874265">
    <ele>1508.68</ele>
   </trkpt>
   <trkpt lat="-26.49012669137787" lon="28.054453320652538">
    <ele>1507.17</ele>
   </trkpt>
   <trkpt lat="-26.49032002779927" lon="28.05539498572961">
    <ele>1503.47</ele>
   </trkpt>
   <trkpt lat="-26.49051335804222" lon="28.05633665397379">
    <ele>1500.6200000000001</ele>
   </trkpt>
   <trkpt lat="-26.49070668210664" lon="28.057278325385024">
    <ele>1498.4</ele>
   </trkpt>
   <trkpt lat="-26.490900000000003" lon="28.058220000000002">
    <ele>1496.38</ele>
   </trkpt>
   <trkpt lat="-26.490424999976465" lon="28.05843500097186">
    <ele>1495.6100000000001</ele>
   </trkpt>
   <trkpt lat="-26.489950000000004" lon="28.058650000000004">
    <ele>1495.3500000000001</ele>
   </trkpt>
   <trkpt lat="-26.48985" lon="28.058740000000004">
    <ele>1495.3500000000001</ele>
   </trkpt>
   <trkpt lat="-26.489810000000002" lon="28.05889">
    <ele>1494.8400000000001</ele>
   </trkpt>
   <trkpt lat="-26.489790000000003" lon="28.0591">
    <ele>1494.8400000000001</ele>
   </trkpt>
   <trkpt lat="-26.489690000000003" lon="28.059130000000003">
    <ele>1494.63</ele>
   </trkpt>
   <trkpt lat="-26.48945" lon="28.05909">
    <ele>1493.7</ele>
   </trkpt>
   <trkpt lat="-26.488722500687377" lon="28.059347504889892">
    <ele>1492.49</ele>
   </trkpt>
   <trkpt lat="-26.48799500091277" lon="28.05960500652108">
    <ele>1491.78</ele>
   </trkpt>
   <trkpt lat="-26.487267500676186" lon="28.0598625048937">
    <ele>1491.15</ele>
   </trkpt>
   <trkpt lat="-26.48654" lon="28.06012">
    <ele>1491.0100000000002</ele>
   </trkpt>
   <trkpt lat="-26.486520000000002" lon="28.060560000000002">
    <ele>1491.1000000000001</ele>
   </trkpt>
   <trkpt lat="-26.48656" lon="28.06124">
    <ele>1491.6100000000001</ele>
   </trkpt>
  </trkseg>
 </trk>
</gpx>
